{"type":"FeatureCollection","features":[{"type":"Feature","properties":{"old":"Adalbert-Schwarz-Gasse","new":"Haymerlegasse","n":27,"geom":"street","len":389,"zmin":13},"geometry":{"type":"LineString","coordinates":[[16.327608799238934,48.20876339632034],[16.32721581,48.2076135],[16.32679979,48.20640556],[16.32643374628565,48.205351631706755]]}},{"type":"Feature","properties":{"old":"Adalbert-Schwarz-Gasse","new":"Haymerlegasse","n":27,"geom":"street","len":389,"zmin":13,"mid":1},"geometry":{"type":"Point","coordinates":[16.327024172656444,48.20705706902847]}},{"type":"Feature","properties":{"old":"Admiral-Scheer-Stra\u00dfe","new":"Wehlistra\u00dfe","n":59,"geom":"street","len":7338,"zmin":11},"geometry":{"type":"LineString","coordinates":[[16.43963219,48.20081426],[16.43957652,48.20077531],[16.43887663,48.20033148],[16.43880539,48.20028868],[16.43878855,48.20027928],[16.43876794,48.20027038],[16.43873881,48.20026064],[16.4387121,48.20025462],[16.43869266,48.20025379],[16.43867627,48.20025704],[16.43865474,48.20026661],[16.43862241,48.20028632],[16.43845156,48.20040774],[16.43798422,48.20073907],[16.43754027,48.20105128],[16.43720715,48.20128561],[16.43689261,48.20151142],[16.43648886,48.20180138],[16.43606737,48.20210407],[16.43594625,48.20219095],[16.4357354,48.2023424],[16.43505162,48.2028353],[16.43458876,48.20316887],[16.43447351,48.20325194],[16.43426075,48.20339574],[16.43362121,48.20384594],[16.43327357,48.20409271],[16.43319444,48.20415657],[16.43317829,48.20417626],[16.43269421,48.20452817],[16.43222628,48.20486237],[16.43219258,48.204886],[16.43127168,48.20553035],[16.43082074,48.20585497],[16.43053491,48.20606127],[16.42977272,48.20660943],[16.42973388,48.2066396],[16.42834128,48.20763146],[16.42687217,48.20866776],[16.42604349,48.20814336],[16.42251595,48.21179366],[16.42217934,48.21203441],[16.42154002,48.21249157],[16.42140562,48.21258772],[16.42091707,48.21293692],[16.41535673,48.21675836],[16.41511079,48.21693762],[16.41489152,48.2170974],[16.41487818,48.21710739],[16.41460641,48.21731154],[16.4131239,48.21846578],[16.41204492,48.21925228],[16.40813136,48.22210051],[16.40718205,48.22279547],[16.40561396,48.22396421],[16.40241366,48.22648694],[16.40225578,48.22661729],[16.4019164,48.22689754],[16.40162744,48.22713616],[16.40124204,48.2274543],[16.40085695,48.22777237],[16.4004228,48.2281308],[16.40021586,48.22830164],[16.39863191,48.22957625],[16.39008385,48.23679437],[16.38955207,48.23726472],[16.38923978,48.23754085],[16.38892308,48.2378209],[16.38811082,48.23853925],[16.38626736,48.24020493],[16.38511721,48.24127702],[16.38493362,48.24144544],[16.38388981,48.2424711],[16.38295114,48.24337467],[16.38161202,48.24466354],[16.38035931,48.24596635],[16.38011159,48.24622339],[16.37985484,48.24648984],[16.37955005,48.24680619],[16.37929992,48.24706575],[16.37870346,48.24768467],[16.37847308,48.24792793],[16.37836135,48.24804593],[16.37817227,48.24824554],[16.37807621,48.24834703],[16.37790384,48.24852906],[16.37779285,48.24864615],[16.37760618,48.2488433],[16.37746828,48.24898885],[16.37696218,48.24952328]]}},{"type":"Feature","properties":{"old":"Admiral-Scheer-Stra\u00dfe","new":"Wehlistra\u00dfe","n":59,"geom":"street","len":7338,"zmin":11,"mid":1},"geometry":{"type":"Point","coordinates":[16.406681242031354,48.22316873575979]}},{"type":"Feature","properties":{"old":"Adolf Hitler-Platz","new":"Rathausplatz","n":4,"geom":"street","len":317,"zmin":13},"geometry":{"type":"LineString","coordinates":[[16.357956943667357,48.209465913159306],[16.35801396,48.20965948],[16.35808712,48.20990804],[16.35815553,48.21010581],[16.35844652,48.21041075],[16.35867873,48.21066244],[16.35858445,48.21093661],[16.35847002,48.21127501],[16.35853162,48.21151409],[16.35868534,48.21207662],[16.358712296439837,48.212173356151624]]}},{"type":"Feature","properties":{"old":"Adolf Hitler-Platz","new":"Rathausplatz","n":4,"geom":"street","len":317,"zmin":13,"mid":1},"geometry":{"type":"Point","coordinates":[16.35864008843485,48.21077481121253]}},{"type":"Feature","properties":{"old":"Althanplatz","new":"Julius-Tandler-Platz","n":13,"geom":"street","len":322,"zmin":13},"geometry":{"type":"LineString","coordinates":[[16.36283738,48.22578967],[16.36261301,48.22602319],[16.36223439,48.22586997],[16.36179037,48.22570117],[16.36170719,48.22567547],[16.36083001,48.22540446],[16.36062873,48.22535286],[16.36047084,48.22587563],[16.3606503,48.22582599],[16.36129365,48.22592316],[16.3613459423443,48.22593105242392]]}},{"type":"Feature","properties":{"old":"Althanplatz","new":"Julius-Tandler-Platz","n":13,"geom":"street","len":322,"zmin":13,"mid":1},"geometry":{"type":"Point","coordinates":[16.3610592177318,48.22547527509769]}},{"type":"Feature","properties":{"old":"Barwiggasse","new":"Spitzergasse","n":2,"geom":"street","len":33,"zmin":14},"geometry":{"type":"LineString","coordinates":[[16.31354919499613,48.237448457304446],[16.31353766,48.23744318],[16.31342799,48.23739841],[16.31328255,48.23734744],[16.31317676,48.23731531],[16.31315325023174,48.23730910675737]]}},{"type":"Feature","properties":{"old":"Barwiggasse","new":"Spitzergasse","n":2,"geom":"street","len":33,"zmin":14,"mid":1},"geometry":{"type":"Point","coordinates":[16.31335574217879,48.237373090476844]}},{"type":"Feature","properties":{"old":"Bl\u00fcchergasse","new":"Arnsteingasse","n":30,"geom":"street","len":403,"zmin":13},"geometry":{"type":"LineString","coordinates":[[16.331151217269312,48.19148778006089],[16.33117158,48.19130107],[16.331298,48.19010448],[16.33138833,48.18928778],[16.33221037385028,48.187974728645095]]}},{"type":"Feature","properties":{"old":"Bl\u00fcchergasse","new":"Arnsteingasse","n":30,"geom":"street","len":403,"zmin":13,"mid":1},"geometry":{"type":"Point","coordinates":[16.33134515462932,48.18967814117827]}},{"type":"Feature","properties":{"old":"Burgkmairgasse","new":"Fleschgasse","n":7,"geom":"street","len":183,"zmin":14},"geometry":{"type":"LineString","coordinates":[[16.289409779190155,48.189247710230504],[16.28912615,48.18873523],[16.28842052,48.18789358],[16.28831994606179,48.18777636249026]]}},{"type":"Feature","properties":{"old":"Burgkmairgasse","new":"Fleschgasse","n":7,"geom":"street","len":183,"zmin":14,"mid":1},"geometry":{"type":"Point","coordinates":[16.288923803197463,48.188493878036006]}},{"type":"Feature","properties":{"old":"Dumreichergasse","new":"Gersunygasse","n":5,"geom":"street","len":156,"zmin":14},"geometry":{"type":"LineString","coordinates":[[16.34373509993556,48.2470064583823],[16.34378009,48.24752382],[16.34380949,48.24786036],[16.343891668782785,48.24840733043903]]}},{"type":"Feature","properties":{"old":"Dumreichergasse","new":"Gersunygasse","n":5,"geom":"street","len":156,"zmin":14,"mid":1},"geometry":{"type":"Point","coordinates":[16.34379616240331,48.24770779981669]}},{"type":"Feature","properties":{"old":"D\u00fchringweg","new":"F\u00fcrthweg","n":5,"geom":"street","len":46,"zmin":14},"geometry":{"type":"LineString","coordinates":[[16.28847302855329,48.17180511344708],[16.288499998660132,48.17139408943641]]}},{"type":"Feature","properties":{"old":"D\u00fchringweg","new":"F\u00fcrthweg","n":5,"geom":"street","len":46,"zmin":14,"mid":1},"geometry":{"type":"Point","coordinates":[16.288486513606713,48.17159960144174]}},{"type":"Feature","properties":{"old":"Eckermanngasse","new":"Spinozagasse","n":3,"geom":"street","len":56,"zmin":14},"geometry":{"type":"LineString","coordinates":[[16.29944368636722,48.22401295294095],[16.29945507,48.22401097],[16.29956475,48.22399091],[16.29968432,48.22396369],[16.29981641,48.22392931],[16.29992325,48.22389885],[16.30008647,48.22385021],[16.300148225681703,48.22382972006894]]}},{"type":"Feature","properties":{"old":"Eckermanngasse","new":"Spinozagasse","n":3,"geom":"street","len":56,"zmin":14,"mid":1},"geometry":{"type":"Point","coordinates":[16.299802593217137,48.223932906191955]}},{"type":"Feature","properties":{"old":"Engelsplatz","new":"Friedrich-Engels-Platz","n":3,"geom":"street","len":98,"zmin":14},"geometry":{"type":"LineString","coordinates":[[16.37775538,48.24486876],[16.37780588,48.24488167],[16.37784997,48.24489816],[16.37854793,48.24519306],[16.378880515893236,48.24533505533235]]}},{"type":"Feature","properties":{"old":"Engelsplatz","new":"Friedrich-Engels-Platz","n":3,"geom":"street","len":98,"zmin":14,"mid":1},"geometry":{"type":"Point","coordinates":[16.378321557078458,48.24509741358106]}},{"type":"Feature","properties":{"old":"Erzherzog-Karl-Platz","new":"Mexikoplatz","n":15,"geom":"street","len":1036,"zmin":12},"geometry":{"type":"LineString","coordinates":[[16.402619893249426,48.224976798115165],[16.40247632,48.22509605],[16.40200796,48.22548513],[16.40149223,48.22591344],[16.40147398,48.22594985],[16.40153473,48.2260096],[16.40241366,48.22648694],[16.40304669,48.22682964],[16.40332301,48.22698054],[16.40432479,48.22626858],[16.40458529,48.22606959],[16.40485157,48.22586617],[16.40556953,48.2253194],[16.405788,48.22514228],[16.40660356,48.22448107],[16.4058771,48.22408904],[16.40569148,48.2239889],[16.40561396,48.22396421],[16.40556486,48.22397063],[16.40552743,48.2239644],[16.40548692,48.22394567],[16.40533887,48.22386559],[16.40455193,48.22344008],[16.40447102,48.2234806],[16.40412935,48.22375453],[16.40345209,48.22429768],[16.40332437,48.22440013],[16.40318289,48.22451691]]}},{"type":"Feature","properties":{"old":"Erzherzog-Karl-Platz","new":"Mexikoplatz","n":15,"geom":"street","len":1036,"zmin":12,"mid":1},"geometry":{"type":"Point","coordinates":[16.405148027187465,48.22564039990642]}},{"type":"Feature","properties":{"old":"Feikestra\u00dfe","new":"Stromstra\u00dfe","n":5,"geom":"street","len":333,"zmin":13},"geometry":{"type":"LineString","coordinates":[[16.372845738428506,48.237358144984874],[16.37291106,48.23738837],[16.37358607,48.23769582],[16.3743803,48.23806484],[16.37459335,48.23816384],[16.37577172,48.23870492],[16.376540055426982,48.23906564438891]]}},{"type":"Feature","properties":{"old":"Feikestra\u00dfe","new":"Stromstra\u00dfe","n":5,"geom":"street","len":333,"zmin":13,"mid":1},"geometry":{"type":"Point","coordinates":[16.374694542844324,48.2382103053922]}},{"type":"Feature","properties":{"old":"Frankhplatz","new":"Alser-Platz","n":3,"geom":"street","ogd_name":"Frankhplatz","len":127,"zmin":14},"geometry":{"type":"LineString","coordinates":[[16.35511888,48.21513341],[16.35515655,48.21492649],[16.35514998,48.21479645],[16.35568254,48.21477451],[16.35578798,48.21476683],[16.35585064,48.21476211],[16.3559321,48.21474966],[16.35596976023361,48.21502637216704]]}},{"type":"Feature","properties":{"old":"Frankhplatz","new":"Alser-Platz","n":3,"geom":"street","ogd_name":"Frankhplatz","len":127,"zmin":14,"mid":1},"geometry":{"type":"Point","coordinates":[16.355496907839402,48.21478215753193]}},{"type":"Feature","properties":{"old":"Frueaufweg","new":"Herschmannweg","n":6,"geom":"street","len":179,"zmin":14},"geometry":{"type":"LineString","coordinates":[[16.285024325254206,48.19936059114344],[16.28499816,48.19938322],[16.28496292,48.19942031],[16.28494366,48.19944672],[16.28492691,48.19948387],[16.28475907,48.20001798],[16.28474306,48.20005009],[16.284475421644892,48.200924190816096]]}},{"type":"Feature","properties":{"old":"Frueaufweg","new":"Herschmannweg","n":6,"geom":"street","len":179,"zmin":14,"mid":1},"geometry":{"type":"Point","coordinates":[16.28471726674758,48.200134330179175]}},{"type":"Feature","properties":{"old":"Ganghofergasse","new":"M\u00fchlsangergasse","n":3,"geom":"street","ogd_name":"Ganghofergasse","len":11,"zmin":14},"geometry":{"type":"LineString","coordinates":[[16.46265883204199,48.14845330717413],[16.462586690717693,48.14836726426274]]}},{"type":"Feature","properties":{"old":"Ganghofergasse","new":"M\u00fchlsangergasse","n":3,"geom":"street","ogd_name":"Ganghofergasse","len":11,"zmin":14,"mid":1},"geometry":{"type":"Point","coordinates":[16.46262276137984,48.148410285718434]}},{"type":"Feature","properties":{"old":"Gustloffgasse","new":"Teschnergasse","n":26,"geom":"street","len":492,"zmin":13},"geometry":{"type":"LineString","coordinates":[[16.338840941579523,48.22722939865796],[16.33878487,48.22706879],[16.33868949,48.22679541],[16.33859936,48.22653721],[16.33832279,48.22581158],[16.33771648,48.22519836],[16.33724362,48.2246885],[16.33654975,48.22396736],[16.335928383972565,48.223309111593124]]}},{"type":"Feature","properties":{"old":"Gustloffgasse","new":"Teschnergasse","n":26,"geom":"street","len":492,"zmin":13,"mid":1},"geometry":{"type":"Point","coordinates":[16.337700737185326,48.22518138535319]}},{"type":"Feature","properties":{"old":"Hans-Schemm-Platz","new":"Ludo-Hartmann-Platz","n":9,"geom":"street","len":325,"zmin":13},"geometry":{"type":"LineString","coordinates":[[16.334354824446923,48.20537663881961],[16.33372926,48.20535596],[16.33366701,48.20589752],[16.33365524,48.2060001],[16.33358615,48.20663524],[16.33455611,48.20648799],[16.33460741,48.20595873],[16.334609918006883,48.20593284380226]]}},{"type":"Feature","properties":{"old":"Hans-Schemm-Platz","new":"Ludo-Hartmann-Platz","n":9,"geom":"street","len":325,"zmin":13,"mid":1},"geometry":{"type":"Point","coordinates":[16.333612241377526,48.20639538361667]}},{"type":"Feature","properties":{"old":"Heilbronner Stra\u00dfe","new":"Thimiggasse","n":54,"geom":"street","len":787,"zmin":13},"geometry":{"type":"LineString","coordinates":[[16.328275862504178,48.23042718247224],[16.32710992,48.23059745],[16.3257851,48.23078767],[16.32416528,48.23102702],[16.32266144,48.23124719],[16.32179005,48.23136906],[16.32084998,48.23150432],[16.32025022,48.23158883],[16.31955266,48.2316871],[16.31908248,48.23172005],[16.31828534,48.231776],[16.31786558514418,48.23180526773325]]}},{"type":"Feature","properties":{"old":"Heilbronner Stra\u00dfe","new":"Thimiggasse","n":54,"geom":"street","len":787,"zmin":13,"mid":1},"geometry":{"type":"Point","coordinates":[16.32308793206501,48.23118474934278]}},{"type":"Feature","properties":{"old":"Hubert-KlausnerGasse","new":"Osterleitengasse","n":12,"geom":"street","len":192,"zmin":14},"geometry":{"type":"LineString","coordinates":[[16.35789474365948,48.239579564423984],[16.3575059,48.23962461],[16.3553436675736,48.23987193725156]]}},{"type":"Feature","properties":{"old":"Hubert-KlausnerGasse","new":"Osterleitengasse","n":12,"geom":"street","len":192,"zmin":14,"mid":1},"geometry":{"type":"Point","coordinates":[16.35661927768841,48.23972602641427]}},{"type":"Feature","properties":{"old":"H\u00f6lderlingasse","new":"Kompertgasse","n":11,"geom":"street","len":75,"zmin":14},"geometry":{"type":"LineString","coordinates":[[16.535021632542843,48.21064383919877],[16.535369470843893,48.21128123753964]]}},{"type":"Feature","properties":{"old":"H\u00f6lderlingasse","new":"Kompertgasse","n":11,"geom":"street","len":75,"zmin":14,"mid":1},"geometry":{"type":"Point","coordinates":[16.53519555169337,48.2109625383692]}},{"type":"Feature","properties":{"old":"H\u00fcsinggasse","new":"Ranzenhofergasse","n":11,"geom":"street","len":113,"zmin":14},"geometry":{"type":"LineString","coordinates":[[16.27838195448641,48.173489966609964],[16.27837198,48.17354282],[16.27834237,48.17362009],[16.27829069,48.17371709],[16.27824145,48.17378445],[16.27816509,48.17387652],[16.27804764,48.17397897],[16.27790426,48.17407044],[16.27773703,48.1741624],[16.27764531,48.17408668],[16.27758214,48.1741196],[16.277535268042644,48.17414400343455]]}},{"type":"Feature","properties":{"old":"H\u00fcsinggasse","new":"Ranzenhofergasse","n":11,"geom":"street","len":113,"zmin":14,"mid":1},"geometry":{"type":"Point","coordinates":[16.278083045606362,48.17394808618244]}},{"type":"Feature","properties":{"old":"Josef-Hackel-Gasse","new":"Antonigasse","n":88,"geom":"street","len":1119,"zmin":12},"geometry":{"type":"LineString","coordinates":[[16.34266056164486,48.22108827715257],[16.34208395,48.22117995],[16.34094099,48.22130696],[16.33942995,48.2217304],[16.33823736,48.22207659],[16.3378885,48.22227382],[16.33671955,48.22284384],[16.33587704,48.22325472],[16.33477364,48.22380266],[16.33382921,48.22426531],[16.33300716,48.22466549],[16.33209961,48.22509987],[16.33114137,48.22534715],[16.33036881,48.22569335],[16.329679150105306,48.22599719379056]]}},{"type":"Feature","properties":{"old":"Josef-Hackel-Gasse","new":"Antonigasse","n":88,"geom":"street","len":1119,"zmin":12,"mid":1},"geometry":{"type":"Point","coordinates":[16.335946734617142,48.223220730938394]}},{"type":"Feature","properties":{"old":"Jurekgasse","new":"Pereiragasse","n":20,"geom":"street","ogd_name":"Jurekgasse","len":451,"zmin":13},"geometry":{"type":"LineString","coordinates":[[16.329730871972483,48.19229162357734],[16.32869854,48.19222274],[16.32741847,48.19214122],[16.32605423,48.19205904],[16.323810428215083,48.191500280613134]]}},{"type":"Feature","properties":{"old":"Jurekgasse","new":"Pereiragasse","n":20,"geom":"street","ogd_name":"Jurekgasse","len":451,"zmin":13,"mid":1},"geometry":{"type":"Point","coordinates":[16.326700559180995,48.192097974008746]}},{"type":"Feature","properties":{"old":"Kempelengasse","new":"Thavonatgasse","n":5,"geom":"street","ogd_name":"Kempelengasse","len":171,"zmin":14},"geometry":{"type":"LineString","coordinates":[[16.39386989743711,48.17507565738981],[16.39373193,48.17464197],[16.39346747,48.1738292],[16.393384124655128,48.173573020750744]]}},{"type":"Feature","properties":{"old":"Kempelengasse","new":"Thavonatgasse","n":5,"geom":"street","ogd_name":"Kempelengasse","len":171,"zmin":14,"mid":1},"geometry":{"type":"Point","coordinates":[16.39362850909503,48.17432412454537]}},{"type":"Feature","properties":{"old":"Kernstockplatz","new":"Familienplatz","n":13,"geom":"street","len":354,"zmin":13},"geometry":{"type":"LineString","coordinates":[[16.31804190434633,48.21469382124187],[16.31812016,48.21491373],[16.31816584,48.21505152],[16.31865121,48.21504604],[16.31902746,48.21504174],[16.31910811,48.21498252],[16.31908075,48.2147676],[16.31899749,48.21411298],[16.31874877,48.21411076],[16.31837842,48.2141074],[16.31784922,48.21410268],[16.31785666,48.2141702],[16.31798006,48.21451934],[16.3180132574433,48.214613309149804]]}},{"type":"Feature","properties":{"old":"Kernstockplatz","new":"Familienplatz","n":13,"geom":"street","len":354,"zmin":13,"mid":1},"geometry":{"type":"Point","coordinates":[16.319035878272082,48.214414802371735]}},{"type":"Feature","properties":{"old":"Kolpingstra\u00dfe","new":"Winarskystra\u00dfe","n":9,"geom":"street","ogd_name":"Kolpingstra\u00dfe","len":344,"zmin":13},"geometry":{"type":"LineString","coordinates":[[16.343180636767098,48.14102703794778],[16.34333742,48.14099616],[16.34424963,48.14081665],[16.34434495,48.14079789],[16.34439281,48.14078706],[16.34442871,48.14077202],[16.34445338,48.14075706],[16.34448245,48.1407338],[16.34450376,48.14070155],[16.34451047,48.14067527],[16.3445027,48.14064225],[16.34402049,48.13954727],[16.34363189317646,48.13865453819021]]}},{"type":"Feature","properties":{"old":"Kolpingstra\u00dfe","new":"Winarskystra\u00dfe","n":9,"geom":"street","ogd_name":"Kolpingstra\u00dfe","len":344,"zmin":13,"mid":1},"geometry":{"type":"Point","coordinates":[16.344280665721687,48.14013806490623]}},{"type":"Feature","properties":{"old":"Kr\u00fctznergasse","new":"Exnergasse","n":2,"geom":"street","ogd_name":"Kr\u00fctznergasse","len":72,"zmin":14},"geometry":{"type":"LineString","coordinates":[[16.34914814,48.22570013],[16.34827564,48.22579079],[16.34818911,48.22581321]]}},{"type":"Feature","properties":{"old":"Kr\u00fctznergasse","new":"Exnergasse","n":2,"geom":"street","ogd_name":"Kr\u00fctznergasse","len":72,"zmin":14,"mid":1},"geometry":{"type":"Point","coordinates":[16.34866602259929,48.22575022600407]}},{"type":"Feature","properties":{"old":"Maitzengasse","new":"Phorusgasse","n":10,"geom":"street","len":208,"zmin":14},"geometry":{"type":"LineString","coordinates":[[16.362893893524625,48.190543737715124],[16.36368737,48.18986977],[16.36380164,48.18977278],[16.36464314616102,48.18907809629039]]}},{"type":"Feature","properties":{"old":"Maitzengasse","new":"Phorusgasse","n":10,"geom":"street","len":208,"zmin":14,"mid":1},"geometry":{"type":"Point","coordinates":[16.36376125520414,48.189807057775006]}},{"type":"Feature","properties":{"old":"Maulpertschplatz","new":"Matteottiplatz","n":4,"geom":"street","len":81,"zmin":14},"geometry":{"type":"LineString","coordinates":[[16.30505593657424,48.222468202888955],[16.30534402,48.22247163],[16.3054154,48.2224817],[16.30543094,48.2225221],[16.30535093,48.22286474],[16.30533809,48.22288279],[16.30531621,48.22289592],[16.30529308,48.22290428],[16.3052608,48.22290609],[16.3052241317106,48.22290202245182]]}},{"type":"Feature","properties":{"old":"Maulpertschplatz","new":"Matteottiplatz","n":4,"geom":"street","len":81,"zmin":14,"mid":1},"geometry":{"type":"Point","coordinates":[16.305411563463753,48.222605079332325]}},{"type":"Feature","properties":{"old":"Mohapelgasse","new":"Tempelgasse","n":5,"geom":"street","len":90,"zmin":14},"geometry":{"type":"LineString","coordinates":[[16.385114996464424,48.21328814558082],[16.38507245,48.21342555],[16.38505577,48.21345999],[16.384872898937367,48.21408320274329]]}},{"type":"Feature","properties":{"old":"Mohapelgasse","new":"Tempelgasse","n":5,"geom":"street","len":90,"zmin":14,"mid":1},"geometry":{"type":"Point","coordinates":[16.38498974692213,48.21368499237538]}},{"type":"Feature","properties":{"old":"Ochsenheimerweg","new":"Kornfeldweg","n":2,"geom":"street","len":80,"zmin":14},"geometry":{"type":"LineString","coordinates":[[16.442545567764295,48.238681640931226],[16.44239747,48.23924271],[16.442375844690453,48.239391894408605]]}},{"type":"Feature","properties":{"old":"Ochsenheimerweg","new":"Kornfeldweg","n":2,"geom":"street","len":80,"zmin":14,"mid":1},"geometry":{"type":"Point","coordinates":[16.442452037011805,48.239035982622006]}},{"type":"Feature","properties":{"old":"Pater-Abel-Platz","new":"Friedrich-Engels-Platz","n":18,"geom":"street","len":624,"zmin":13},"geometry":{"type":"LineString","coordinates":[[16.38174988152226,48.244726875254294],[16.38161202,48.24466354],[16.38061393,48.24421308],[16.37945096,48.24368441],[16.37924464,48.24375334],[16.37919454,48.24383928],[16.37896953,48.24406687],[16.37891118,48.24410398],[16.37884567,48.2441345],[16.37879583,48.24415068],[16.37872738,48.2441859],[16.37865991,48.24425492],[16.37838381,48.24452868],[16.37818075,48.24473005],[16.37816405,48.24475633],[16.37783465,48.24481196],[16.37775538,48.24486876],[16.37780588,48.24488167],[16.37784997,48.24489816],[16.37854793,48.24519306],[16.3793508,48.24553584],[16.37994187,48.24578813],[16.38035931,48.24596635]]}},{"type":"Feature","properties":{"old":"Pater-Abel-Platz","new":"Friedrich-Engels-Platz","n":18,"geom":"street","len":624,"zmin":13,"mid":1},"geometry":{"type":"Point","coordinates":[16.37853295667532,48.244380797371115]}},{"type":"Feature","properties":{"old":"Pfarrplatz","new":"Hermaplatz","n":2,"geom":"street","ogd_name":"Pfarrplatz","len":38,"zmin":14},"geometry":{"type":"LineString","coordinates":[[16.35879488,48.25470695],[16.35862286,48.25470558],[16.3585813,48.25470221],[16.35861058,48.25477436],[16.35861166,48.25482214],[16.358612644072085,48.254896963412094]]}},{"type":"Feature","properties":{"old":"Pfarrplatz","new":"Hermaplatz","n":2,"geom":"street","ogd_name":"Pfarrplatz","len":38,"zmin":14,"mid":1},"geometry":{"type":"Point","coordinates":[16.358592060115672,48.254728724424375]}},{"type":"Feature","properties":{"old":"Planettaplatz","new":"Parhamerplatz","n":11,"geom":"street","len":304,"zmin":13},"geometry":{"type":"LineString","coordinates":[[16.32729642,48.21563096],[16.3273113,48.21591754],[16.32733422,48.21650555],[16.32811534,48.21650441],[16.32818139,48.21561922],[16.327503776402423,48.21562820921278]]}},{"type":"Feature","properties":{"old":"Planettaplatz","new":"Parhamerplatz","n":11,"geom":"street","len":304,"zmin":13,"mid":1},"geometry":{"type":"Point","coordinates":[16.3280721561213,48.2165044730244]}},{"type":"Feature","properties":{"old":"Reichsbr\u00fcckenstra\u00dfe","new":"Lassallestra\u00dfe","n":54,"geom":"street","len":808,"zmin":12},"geometry":{"type":"LineString","coordinates":[[16.394455862991194,48.22007497809415],[16.39567201,48.22073139],[16.39723842,48.22157832],[16.39877258,48.22240719],[16.40032246,48.22322992],[16.40108907,48.22365195],[16.40185348,48.22407287],[16.40179783,48.22429857],[16.402602138807243,48.224737114160305]]}},{"type":"Feature","properties":{"old":"Reichsbr\u00fcckenstra\u00dfe","new":"Lassallestra\u00dfe","n":54,"geom":"street","len":808,"zmin":12,"mid":1},"geometry":{"type":"Point","coordinates":[16.398692051271567,48.2223636822517]}},{"type":"Feature","properties":{"old":"Scharnhorstgasse","new":"Friesgasse","n":3,"geom":"street","len":67,"zmin":14},"geometry":{"type":"LineString","coordinates":[[16.334424185397502,48.19064234772653],[16.33357891462763,48.19043958940258]]}},{"type":"Feature","properties":{"old":"Scharnhorstgasse","new":"Friesgasse","n":3,"geom":"street","len":67,"zmin":14,"mid":1},"geometry":{"type":"Point","coordinates":[16.334001550012566,48.190540968564555]}},{"type":"Feature","properties":{"old":"Sennhofergasse","new":"Hahngasse","n":33,"geom":"street","len":511,"zmin":13},"geometry":{"type":"LineString","coordinates":[[16.366334642081718,48.21863501905592],[16.36600143,48.21912907],[16.3655058,48.2201904],[16.36530609,48.22084021],[16.36526067,48.22140068],[16.3652279,48.22200211],[16.3652265940071,48.22311591264972]]}},{"type":"Feature","properties":{"old":"Sennhofergasse","new":"Hahngasse","n":33,"geom":"street","len":511,"zmin":13,"mid":1},"geometry":{"type":"Point","coordinates":[16.365312042219458,48.22082084285902]}},{"type":"Feature","properties":{"old":"Silchergasse","new":"Meyerbeergasse","n":8,"geom":"street","len":152,"zmin":14},"geometry":{"type":"LineString","coordinates":[[16.375334664530882,48.27192652638825],[16.37587676,48.2720526],[16.37591825,48.27208574],[16.37595162,48.2721014],[16.37617815,48.27215177],[16.37659804,48.27224696],[16.37661614,48.27224885],[16.37725352617684,48.27239451195361]]}},{"type":"Feature","properties":{"old":"Silchergasse","new":"Meyerbeergasse","n":8,"geom":"street","len":152,"zmin":14,"mid":1},"geometry":{"type":"Point","coordinates":[16.37628089947169,48.27217506353452]}},{"type":"Feature","properties":{"old":"Starhemberggasse","new":"Graf-Starhemberg-Gasse","n":45,"geom":"street","len":782,"zmin":13},"geometry":{"type":"LineString","coordinates":[[16.367199645430752,48.192956269520465],[16.36722606,48.19294329],[16.36730233,48.19289753],[16.36776695,48.19265115],[16.36780181,48.19261067],[16.36799393,48.19249693],[16.36808877,48.19241941],[16.36913267,48.19115767],[16.36949575,48.1907247],[16.3696691,48.19051808],[16.37044447,48.18959345],[16.37193762,48.18783158],[16.37244385,48.18723407],[16.372654301406996,48.18698570171315]]}},{"type":"Feature","properties":{"old":"Starhemberggasse","new":"Graf-Starhemberg-Gasse","n":45,"geom":"street","len":782,"zmin":13,"mid":1},"geometry":{"type":"Point","coordinates":[16.370063148518003,48.190048176494315]}},{"type":"Feature","properties":{"old":"Steinlegasse","new":"Lang-Gasse","n":2,"geom":"street","ogd_name":"Langgasse","len":73,"zmin":14},"geometry":{"type":"LineString","coordinates":[[16.27632343137321,48.15811042124305],[16.276822570827306,48.158671135420725]]}},{"type":"Feature","properties":{"old":"Steinlegasse","new":"Lang-Gasse","n":2,"geom":"street","ogd_name":"Langgasse","len":73,"zmin":14,"mid":1},"geometry":{"type":"Point","coordinates":[16.27657300110026,48.15839077833189]}},{"type":"Feature","properties":{"old":"Stellwaggasse","new":"Zuckerkandlgasse","n":2,"geom":"street","len":42,"zmin":14},"geometry":{"type":"LineString","coordinates":[[16.311365811031333,48.24505594786204],[16.31145435,48.24499112],[16.31155221,48.24491434],[16.31172037,48.2447752],[16.311731950538718,48.244764536051036]]}},{"type":"Feature","properties":{"old":"Stellwaggasse","new":"Zuckerkandlgasse","n":2,"geom":"street","len":42,"zmin":14,"mid":1},"geometry":{"type":"Point","coordinates":[16.311553824008477,48.244913004527]}},{"type":"Feature","properties":{"old":"Sterneckplatz","new":"Max-Winter-Platz","n":24,"geom":"street","len":445,"zmin":13},"geometry":{"type":"LineString","coordinates":[[16.398959644840783,48.220448798862265],[16.39932503,48.2206405],[16.4002837,48.22115651],[16.40033086,48.22111876],[16.40056412,48.22066967],[16.40072533,48.22035931],[16.40114713,48.2195199],[16.39991411,48.21952881],[16.399451536508728,48.219521200372164]]}},{"type":"Feature","properties":{"old":"Sterneckplatz","new":"Max-Winter-Platz","n":24,"geom":"street","len":445,"zmin":13,"mid":1},"geometry":{"type":"Point","coordinates":[16.400732799044647,48.22034444610534]}},{"type":"Feature","properties":{"old":"Stra\u00dfe der Julik\u00e4mpfer","new":"Siebensterngasse","n":38,"geom":"street","len":571,"zmin":13},"geometry":{"type":"LineString","coordinates":[[16.35688603324626,48.20284279883569],[16.35620735,48.20271247],[16.35588508,48.20264564],[16.3555337,48.20257431],[16.35454695,48.20238927],[16.3537245,48.20230818],[16.35237571,48.2021855],[16.35220397,48.20218025],[16.35203697,48.20218421],[16.35174259,48.20221067],[16.35120659,48.20225683],[16.35080962,48.2022344],[16.35025195,48.20220074],[16.349319302558946,48.202149677891036]]}},{"type":"Feature","properties":{"old":"Stra\u00dfe der Julik\u00e4mpfer","new":"Siebensterngasse","n":38,"geom":"street","len":571,"zmin":13,"mid":1},"geometry":{"type":"Point","coordinates":[16.35314764937083,48.20225571220651]}},{"type":"Feature","properties":{"old":"Tschechowgasse","new":"Slatingasse","n":5,"geom":"street","ogd_name":"Tschechowgasse","len":99,"zmin":14},"geometry":{"type":"LineString","coordinates":[[16.38003175971294,48.279444561394804],[16.37951064,48.2795476],[16.37895044,48.27966241],[16.378755860703347,48.27970180076993]]}},{"type":"Feature","properties":{"old":"Tschechowgasse","new":"Slatingasse","n":5,"geom":"street","ogd_name":"Tschechowgasse","len":99,"zmin":14,"mid":1},"geometry":{"type":"Point","coordinates":[16.37939313101736,48.27957168283881]}},{"type":"Feature","properties":{"old":"Uhdegasse","new":"Veithgasse","n":6,"geom":"street","len":77,"zmin":14},"geometry":{"type":"LineString","coordinates":[[16.379522449516873,48.19803108772775],[16.37960254,48.19812107],[16.37956686819643,48.19870459430901]]}},{"type":"Feature","properties":{"old":"Uhdegasse","new":"Veithgasse","n":6,"geom":"street","len":77,"zmin":14,"mid":1},"geometry":{"type":"Point","coordinates":[16.37958789944971,48.198360562151684]}},{"type":"Feature","properties":{"old":"Wohlrabgasse","new":"Blumengasse","n":47,"geom":"street","len":859,"zmin":12},"geometry":{"type":"LineString","coordinates":[[16.328603664828353,48.2225391297119],[16.32930106,48.2223051],[16.33013476,48.22201912],[16.33101524,48.22172063],[16.33178142,48.22147335],[16.33271319,48.2211823],[16.33362498,48.22090009],[16.33491367,48.22064219],[16.3362709,48.22036228],[16.33840822,48.21991822],[16.339355302889803,48.21971755734993]]}},{"type":"Feature","properties":{"old":"Wohlrabgasse","new":"Blumengasse","n":47,"geom":"street","len":859,"zmin":12,"mid":1},"geometry":{"type":"Point","coordinates":[16.333819799817377,48.22086110154591]}},{"type":"Feature","properties":{"old":"Zumbuschgasse","new":"Ruthgasse","n":7,"geom":"street","len":327,"zmin":13},"geometry":{"type":"LineString","coordinates":[[16.354449979518485,48.24496413036096],[16.35428075,48.24499219],[16.35403493,48.24501935],[16.35381047,48.24503224],[16.35365237,48.24503655],[16.35178948,48.24502249],[16.35168051,48.24502313],[16.35146151,48.24502689],[16.35134538,48.24503688],[16.35120748,48.24504828],[16.35109105,48.2450634],[16.35056786,48.24513366],[16.350070475078045,48.245199414950264]]}},{"type":"Feature","properties":{"old":"Zumbuschgasse","new":"Ruthgasse","n":7,"geom":"street","len":327,"zmin":13,"mid":1},"geometry":{"type":"Point","coordinates":[16.352252739093927,48.245025986407654]}}]}