{"type": "FeatureCollection", "features": [{"type": "Feature", "properties": {"old": "Adalbert-Schwarz-Gasse", "new": "Haymerlegasse", "n": 584}, "geometry": {"type": "Point", "coordinates": [16.3271211324074, 48.20701738930714]}}, {"type": "Feature", "properties": {"old": "Admiral-Scheer-Straße", "new": "Wehlistraße", "n": 1639}, "geometry": {"type": "Point", "coordinates": [16.404560329425326, 48.22534018196077]}}, {"type": "Feature", "properties": {"old": "Adolf Hitler-Platz", "new": "Rathausplatz", "n": 44}, "geometry": {"type": "Point", "coordinates": [16.358002272727273, 48.210713636363636]}}, {"type": "Feature", "properties": {"old": "Althanplatz", "new": "Julius-Tandler-Platz", "n": 222}, "geometry": {"type": "Point", "coordinates": [16.361336143851783, 48.225610133383036]}}, {"type": "Feature", "properties": {"old": "Barwiggasse", "new": "Spitzergasse", "n": 3}, "geometry": {"type": "Point", "coordinates": [16.3135, 48.23733333333333]}}, {"type": "Feature", "properties": {"old": "Bergmeistergasse", "new": "Goldscheid-Gasse", "n": 11}, "geometry": {"type": "Point", "coordinates": [16.3006, 48.224500000000006]}}, {"type": "Feature", "properties": {"old": "Blüchergasse", "new": "Arnsteingasse", "n": 754}, "geometry": {"type": "Point", "coordinates": [16.33138302387268, 48.19000331564986]}}, {"type": "Feature", "properties": {"old": "Burgkmairgasse", "new": "Fleschgasse", "n": 47}, "geometry": {"type": "Point", "coordinates": [16.484638297872337, 48.22417872340426]}}, {"type": "Feature", "properties": {"old": "Dumreichergasse", "new": "Gersunygasse", "n": 14}, "geometry": {"type": "Point", "coordinates": [16.343857142857143, 48.24762142857143]}}, {"type": "Feature", "properties": {"old": "Dühringweg", "new": "Fürthweg", "n": 11}, "geometry": {"type": "Point", "coordinates": [16.288554545454545, 48.171609090909094]}}, {"type": "Feature", "properties": {"old": "Eberhartgasse", "new": "Liebknechtgasse", "n": 19}, "geometry": {"type": "Point", "coordinates": [16.3046, 48.223]}}, {"type": "Feature", "properties": {"old": "Eckermanngasse", "new": "Spinozagasse", "n": 6}, "geometry": {"type": "Point", "coordinates": [16.2999, 48.22396666666666]}}, {"type": "Feature", "properties": {"old": "Engelsplatz", "new": "Friedrich-Engels-Platz", "n": 5}, "geometry": {"type": "Point", "coordinates": [16.377883118340524, 48.245707307844825]}}, {"type": "Feature", "properties": {"old": "Erzherzog-Karl-Platz", "new": "Mexikoplatz", "n": 744}, "geometry": {"type": "Point", "coordinates": [16.403558576498554, 48.22438504100446]}}, {"type": "Feature", "properties": {"old": "Feikestraße", "new": "Stromstraße", "n": 25}, "geometry": {"type": "Point", "coordinates": [16.376292, 48.23884]}}, {"type": "Feature", "properties": {"old": "Frankhplatz", "new": "Alser-Platz", "n": 25}, "geometry": {"type": "Point", "coordinates": [16.355643999999998, 48.214244]}}, {"type": "Feature", "properties": {"old": "Frueaufweg", "new": "Herschmannweg", "n": 20}, "geometry": {"type": "Point", "coordinates": [16.284525000000002, 48.200435]}}, {"type": "Feature", "properties": {"old": "Ganghofergasse", "new": "Mühlsangergasse", "n": 96}, "geometry": {"type": "Point", "coordinates": [16.4626875, 48.148387500000005]}}, {"type": "Feature", "properties": {"old": "Gustloffgasse", "new": "Teschnergasse", "n": 787}, "geometry": {"type": "Point", "coordinates": [16.337626026815762, 48.225273701388936]}}, {"type": "Feature", "properties": {"old": "Hans-Schemm-Platz", "new": "Ludo-Hartmann-Platz", "n": 330}, "geometry": {"type": "Point", "coordinates": [16.3338061056892, 48.20590701095189]}}, {"type": "Feature", "properties": {"old": "Hauckgasse", "new": "Oppenheimgasse", "n": 2}, "geometry": {"type": "Point", "coordinates": [16.402, 48.1537]}}, {"type": "Feature", "properties": {"old": "Heilbronner Straße", "new": "Thimiggasse", "n": 482}, "geometry": {"type": "Point", "coordinates": [16.32477725101413, 48.230935242855125]}}, {"type": "Feature", "properties": {"old": "Hofmoklgasse", "new": "Zappertgasse", "n": 2}, "geometry": {"type": "Point", "coordinates": [16.3275, 48.185]}}, {"type": "Feature", "properties": {"old": "Hubert-KlausnerGasse", "new": "Osterleitengasse", "n": 46}, "geometry": {"type": "Point", "coordinates": [16.356026086956522, 48.23969565217391]}}, {"type": "Feature", "properties": {"old": "Hölderlingasse", "new": "Kompertgasse", "n": 348}, "geometry": {"type": "Point", "coordinates": [16.535215229885058, 48.2110448275862]}}, {"type": "Feature", "properties": {"old": "Hüsinggasse", "new": "Ranzenhofergasse", "n": 38}, "geometry": {"type": "Point", "coordinates": [16.27827894736842, 48.17369736842105]}}, {"type": "Feature", "properties": {"old": "Josef-Hackel-Gasse", "new": "Antonigasse", "n": 481}, "geometry": {"type": "Point", "coordinates": [16.33577138662232, 48.223347326923715]}}, {"type": "Feature", "properties": {"old": "Jurekgasse", "new": "Pereiragasse", "n": 499}, "geometry": {"type": "Point", "coordinates": [16.326933667334668, 48.192013426853705]}}, {"type": "Feature", "properties": {"old": "Kempelengasse", "new": "Thavonatgasse", "n": 479}, "geometry": {"type": "Point", "coordinates": [16.393411691022965, 48.17422567849687]}}, {"type": "Feature", "properties": {"old": "Kernstockplatz", "new": "Familienplatz", "n": 317}, "geometry": {"type": "Point", "coordinates": [16.318606840121813, 48.214563342001455]}}, {"type": "Feature", "properties": {"old": "Kolpingstraße", "new": "Winarskystraße", "n": 1168}, "geometry": {"type": "Point", "coordinates": [16.343688784246574, 48.13880034246575]}}, {"type": "Feature", "properties": {"old": "Kriemhildplatz", "new": "Kanzlerplatz", "n": 328}, "geometry": {"type": "Point", "coordinates": [16.3282, 48.2022]}}, {"type": "Feature", "properties": {"old": "Krütznergasse", "new": "Exnergasse", "n": 70}, "geometry": {"type": "Point", "coordinates": [16.348652857142856, 48.22575285714286]}}, {"type": "Feature", "properties": {"old": "Maitzengasse", "new": "Phorusgasse", "n": 299}, "geometry": {"type": "Point", "coordinates": [16.364098662207358, 48.18950434782609]}}, {"type": "Feature", "properties": {"old": "Maulpertschplatz", "new": "Matteottiplatz", "n": 237}, "geometry": {"type": "Point", "coordinates": [16.305199156118142, 48.22122869198312]}}, {"type": "Feature", "properties": {"old": "Metznerstraße", "new": "Liebenstraße", "n": 23}, "geometry": {"type": "Point", "coordinates": [16.3251, 48.1695]}}, {"type": "Feature", "properties": {"old": "Mohapelgasse", "new": "Tempelgasse", "n": 91}, "geometry": {"type": "Point", "coordinates": [16.384914285714284, 48.21374615384615]}}, {"type": "Feature", "properties": {"old": "Ochsenheimerweg", "new": "Kornfeldweg", "n": 4}, "geometry": {"type": "Point", "coordinates": [16.4426, 48.239050000000006]}}, {"type": "Feature", "properties": {"old": "Pater-Abel-Platz", "new": "Friedrich-Engels-Platz", "n": 1214}, "geometry": {"type": "Point", "coordinates": [16.379031197487283, 48.24543100162854]}}, {"type": "Feature", "properties": {"old": "Pfarrplatz", "new": "Hermaplatz", "n": 39}, "geometry": {"type": "Point", "coordinates": [16.358120512820513, 48.25489230769231]}}, {"type": "Feature", "properties": {"old": "Planettaplatz", "new": "Parhamerplatz", "n": 302}, "geometry": {"type": "Point", "coordinates": [16.32754271523179, 48.215971192052976]}}, {"type": "Feature", "properties": {"old": "Pleischlgasse", "new": "Klabundgasse", "n": 17}, "geometry": {"type": "Point", "coordinates": [16.3576, 48.2464]}}, {"type": "Feature", "properties": {"old": "Reichsbrückenstraße", "new": "Lassallestraße", "n": 2094}, "geometry": {"type": "Point", "coordinates": [16.399898929810387, 48.22272344925627]}}, {"type": "Feature", "properties": {"old": "Scharnhorstgasse", "new": "Friesgasse", "n": 68}, "geometry": {"type": "Point", "coordinates": [16.33414705882353, 48.190441176470586]}}, {"type": "Feature", "properties": {"old": "Schredtgasse", "new": "Neulinggasse", "n": 13}, "geometry": {"type": "Point", "coordinates": [16.3934, 48.19949999999999]}}, {"type": "Feature", "properties": {"old": "Schulbrüdergasse", "new": "Strebersdorfer Platz", "n": 16}, "geometry": {"type": "Point", "coordinates": [16.3901, 48.2954]}}, {"type": "Feature", "properties": {"old": "Sennhofergasse", "new": "Hahngasse", "n": 911}, "geometry": {"type": "Point", "coordinates": [16.365445952526354, 48.22105131733511]}}, {"type": "Feature", "properties": {"old": "Silchergasse", "new": "Meyerbeergasse", "n": 37}, "geometry": {"type": "Point", "coordinates": [16.37681081081081, 48.2724054054054]}}, {"type": "Feature", "properties": {"old": "Starhemberggasse", "new": "Graf-Starhemberg-Gasse", "n": 1550}, "geometry": {"type": "Point", "coordinates": [16.370549903286108, 48.189483496773484]}}, {"type": "Feature", "properties": {"old": "Steinlegasse", "new": "Lang-Gasse", "n": 25}, "geometry": {"type": "Point", "coordinates": [16.276172, 48.158232]}}, {"type": "Feature", "properties": {"old": "Stellwaggasse", "new": "Zuckerkandlgasse", "n": 5}, "geometry": {"type": "Point", "coordinates": [16.3116, 48.2449]}}, {"type": "Feature", "properties": {"old": "Sterneckplatz", "new": "Max-Winter-Platz", "n": 2175}, "geometry": {"type": "Point", "coordinates": [16.40008600072336, 48.22023757839093]}}, {"type": "Feature", "properties": {"old": "Stoffellagasse", "new": "Emiliegasse", "n": 11}, "geometry": {"type": "Point", "coordinates": [16.3926, 48.2153]}}, {"type": "Feature", "properties": {"old": "Stranitzkygasse", "new": "Dawisongasse", "n": 4}, "geometry": {"type": "Point", "coordinates": [16.3177, 48.1749]}}, {"type": "Feature", "properties": {"old": "Straße der Julikämpfer", "new": "Siebensterngasse", "n": 848}, "geometry": {"type": "Point", "coordinates": [16.35276207250004, 48.20237524796548]}}, {"type": "Feature", "properties": {"old": "Tschechowgasse", "new": "Slatingasse", "n": 29}, "geometry": {"type": "Point", "coordinates": [16.37910344827586, 48.279758620689655]}}, {"type": "Feature", "properties": {"old": "Uhdegasse", "new": "Veithgasse", "n": 55}, "geometry": {"type": "Point", "coordinates": [16.379492727272726, 48.19845272727273]}}, {"type": "Feature", "properties": {"old": "VierundachtzigerPlatz", "new": "Elderschplatz", "n": 3}, "geometry": {"type": "Point", "coordinates": [16.4114, 48.2181]}}, {"type": "Feature", "properties": {"old": "Wohlrabgasse", "new": "Blumengasse", "n": 999}, "geometry": {"type": "Point", "coordinates": [16.334597297297297, 48.2208052052052]}}, {"type": "Feature", "properties": {"old": "Zumbuschgasse", "new": "Ruthgasse", "n": 28}, "geometry": {"type": "Point", "coordinates": [16.355117857142858, 48.24225357142857]}}, {"type": "Feature", "properties": {"old": "Zwillinggasse", "new": "Kinderasylgasse", "n": 30}, "geometry": {"type": "Point", "coordinates": [16.3562, 48.274]}}]}