{"type":"FeatureCollection","features":[{"type":"Feature","properties":{"old":"Adolf Hitler-Platz","new":"Rathausplatz","n":4,"year":"1939"},"geometry":{"type":"LineString","coordinates":[[16.357956943667357,48.209465913159306],[16.35801396,48.20965948],[16.35808712,48.20990804],[16.35815553,48.21010581],[16.35844652,48.21041075],[16.35867873,48.21066244],[16.35858445,48.21093661],[16.35847002,48.21127501],[16.35853162,48.21151409],[16.35868534,48.21207662],[16.358712296439837,48.212173356151624]]}},{"type":"Feature","properties":{"old":"Althanplatz","new":"Julius-Tandler-Platz","n":13,"year":"1939"},"geometry":{"type":"LineString","coordinates":[[16.36283738,48.22578967],[16.36261301,48.22602319],[16.36223439,48.22586997],[16.36179037,48.22570117],[16.36170719,48.22567547],[16.36083001,48.22540446],[16.36062873,48.22535286],[16.36047084,48.22587563],[16.3606503,48.22582599],[16.36129365,48.22592316],[16.3613459423443,48.22593105242392]]}},{"type":"Feature","properties":{"old":"Eberhartgasse","new":"Liebknechtgasse","st":"Eberhartgasse","hn":"36","n":4,"year":"1939"},"geometry":{"type":"Point","coordinates":[16.3046,48.223]}},{"type":"Feature","properties":{"old":"Engelsplatz / Pater-Abel-Platz","new":"Friedrich-Engels-Platz","st":"Pater Abel-Platz","hn":"4","n":8,"year":"1939"},"geometry":{"type":"Point","coordinates":[16.37752,48.24587]}},{"type":"Feature","properties":{"old":"Engelsplatz / Pater-Abel-Platz","new":"Friedrich-Engels-Platz","st":"Engelsplatz","hn":"2","n":4,"year":"1939"},"geometry":{"type":"Point","coordinates":[16.37642,48.24634]}},{"type":"Feature","properties":{"old":"Erzherzog-Karl-Platz","new":"Mexikoplatz","n":14,"year":"1939"},"geometry":{"type":"LineString","coordinates":[[16.402619893249426,48.224976798115165],[16.40247632,48.22509605],[16.40200796,48.22548513],[16.40149223,48.22591344],[16.40147398,48.22594985],[16.40153473,48.2260096],[16.40241366,48.22648694],[16.40304669,48.22682964],[16.40332301,48.22698054],[16.40432479,48.22626858],[16.40458529,48.22606959],[16.40485157,48.22586617],[16.40556953,48.2253194],[16.405788,48.22514228],[16.40660356,48.22448107],[16.4058771,48.22408904],[16.40569148,48.2239889],[16.40561396,48.22396421],[16.40556486,48.22397063],[16.40552743,48.2239644],[16.40548692,48.22394567],[16.40533887,48.22386559],[16.40455193,48.22344008],[16.40447102,48.2234806],[16.40412935,48.22375453],[16.40345209,48.22429768],[16.40332437,48.22440013],[16.40318289,48.22451691]]}},{"type":"Feature","properties":{"old":"Frankhplatz","new":"Alser-Platz","n":3,"year":"1939"},"geometry":{"type":"LineString","coordinates":[[16.35511888,48.21513341],[16.35515655,48.21492649],[16.35514998,48.21479645],[16.35568254,48.21477451],[16.35578798,48.21476683],[16.35585064,48.21476211],[16.3559321,48.21474966],[16.35596976023361,48.21502637216704]]}},{"type":"Feature","properties":{"old":"Ganghofergasse","new":"M\u00fchlsangergasse","n":3,"year":"1939"},"geometry":{"type":"LineString","coordinates":[[16.46265883204199,48.14845330717413],[16.462586690717693,48.14836726426274]]}},{"type":"Feature","properties":{"old":"Kempelengasse","new":"Thavonatgasse","n":5,"year":"1939"},"geometry":{"type":"LineString","coordinates":[[16.39386989743711,48.17507565738981],[16.39373193,48.17464197],[16.39346747,48.1738292],[16.393384124655128,48.173573020750744]]}},{"type":"Feature","properties":{"old":"Kernstockplatz","new":"Familienplatz","n":11,"year":"1939"},"geometry":{"type":"LineString","coordinates":[[16.31804190434633,48.21469382124187],[16.31812016,48.21491373],[16.31816584,48.21505152],[16.31865121,48.21504604],[16.31902746,48.21504174],[16.31910811,48.21498252],[16.31908075,48.2147676],[16.31899749,48.21411298],[16.31874877,48.21411076],[16.31837842,48.2141074],[16.31784922,48.21410268],[16.31785666,48.2141702],[16.31798006,48.21451934],[16.3180132574433,48.214613309149804]]}},{"type":"Feature","properties":{"old":"Kolpingstra\u00dfe","new":"Winarskystra\u00dfe","n":9,"year":"1939"},"geometry":{"type":"LineString","coordinates":[[16.343180636767098,48.14102703794778],[16.34333742,48.14099616],[16.34424963,48.14081665],[16.34434495,48.14079789],[16.34439281,48.14078706],[16.34442871,48.14077202],[16.34445338,48.14075706],[16.34448245,48.1407338],[16.34450376,48.14070155],[16.34451047,48.14067527],[16.3445027,48.14064225],[16.34402049,48.13954727],[16.34363189317646,48.13865453819021]]}},{"type":"Feature","properties":{"old":"Kriemhildplatz","new":"Kanzlerplatz","st":"Kriemhildplatz","hn":"","n":92,"year":"1939"},"geometry":{"type":"Point","coordinates":[16.3282,48.2022]}},{"type":"Feature","properties":{"old":"Kr\u00fctznergasse","new":"Exnergasse","n":2,"year":"1939"},"geometry":{"type":"LineString","coordinates":[[16.34914814,48.22570013],[16.34827564,48.22579079],[16.34818911,48.22581321]]}},{"type":"Feature","properties":{"old":"Maulpertschplatz","new":"Matteottiplatz","n":4,"year":"1939"},"geometry":{"type":"LineString","coordinates":[[16.30505593657424,48.222468202888955],[16.30534402,48.22247163],[16.3054154,48.2224817],[16.30543094,48.2225221],[16.30535093,48.22286474],[16.30533809,48.22288279],[16.30531621,48.22289592],[16.30529308,48.22290428],[16.3052608,48.22290609],[16.3052241317106,48.22290202245182]]}},{"type":"Feature","properties":{"old":"Pater-Abel-Platz","new":"Friedrich-Engels-Platz","n":15,"year":"1939"},"geometry":{"type":"LineString","coordinates":[[16.38174988152226,48.244726875254294],[16.38161202,48.24466354],[16.38061393,48.24421308],[16.37945096,48.24368441],[16.37924464,48.24375334],[16.37919454,48.24383928],[16.37896953,48.24406687],[16.37891118,48.24410398],[16.37884567,48.2441345],[16.37879583,48.24415068],[16.37872738,48.2441859],[16.37865991,48.24425492],[16.37838381,48.24452868],[16.37818075,48.24473005],[16.37816405,48.24475633],[16.37783465,48.24481196],[16.37775538,48.24486876],[16.37780588,48.24488167],[16.37784997,48.24489816],[16.37854793,48.24519306],[16.3793508,48.24553584],[16.37994187,48.24578813],[16.38035931,48.24596635]]}},{"type":"Feature","properties":{"old":"Pfarrplatz","new":"Hermaplatz","n":2,"year":"1939"},"geometry":{"type":"LineString","coordinates":[[16.35879488,48.25470695],[16.35862286,48.25470558],[16.3585813,48.25470221],[16.35861058,48.25477436],[16.35861166,48.25482214],[16.358612644072085,48.254896963412094]]}},{"type":"Feature","properties":{"old":"Planettaplatz","new":"Parhamerplatz","n":9,"year":"1939"},"geometry":{"type":"LineString","coordinates":[[16.32729642,48.21563096],[16.3273113,48.21591754],[16.32733422,48.21650555],[16.32811534,48.21650441],[16.32818139,48.21561922],[16.327503776402423,48.21562820921278]]}},{"type":"Feature","properties":{"old":"Reichsbr\u00fcckenstra\u00dfe","new":"Lassallestra\u00dfe","n":45,"year":"1939"},"geometry":{"type":"LineString","coordinates":[[16.394455862991194,48.22007497809415],[16.39567201,48.22073139],[16.39723842,48.22157832],[16.39877258,48.22240719],[16.40032246,48.22322992],[16.40108907,48.22365195],[16.40185348,48.22407287],[16.40179783,48.22429857],[16.402602138807243,48.224737114160305]]}},{"type":"Feature","properties":{"old":"Schulbr\u00fcdergasse","new":"Strebersdorfer Platz","st":"Schulbr\u00fcderg","hn":"","n":4,"year":"1939"},"geometry":{"type":"Point","coordinates":[16.3901,48.2954]}},{"type":"Feature","properties":{"old":"Starhemberggasse","new":"Graf-Starhemberg-Gasse","n":41,"year":"1939"},"geometry":{"type":"LineString","coordinates":[[16.367199645430752,48.192956269520465],[16.36722606,48.19294329],[16.36730233,48.19289753],[16.36776695,48.19265115],[16.36780181,48.19261067],[16.36799393,48.19249693],[16.36808877,48.19241941],[16.36913267,48.19115767],[16.36949575,48.1907247],[16.3696691,48.19051808],[16.37044447,48.18959345],[16.37193762,48.18783158],[16.37244385,48.18723407],[16.372654301406996,48.18698570171315]]}},{"type":"Feature","properties":{"old":"Steinlegasse","new":"Lang-Gasse","n":1,"year":"1939"},"geometry":{"type":"LineString","coordinates":[[16.27632343137321,48.15811042124305],[16.276822570827306,48.158671135420725]]}},{"type":"Feature","properties":{"old":"Sterneckplatz","new":"Max-Winter-Platz","n":20,"year":"1939"},"geometry":{"type":"LineString","coordinates":[[16.398959644840783,48.220448798862265],[16.39932503,48.2206405],[16.4002837,48.22115651],[16.40033086,48.22111876],[16.40056412,48.22066967],[16.40072533,48.22035931],[16.40114713,48.2195199],[16.39991411,48.21952881],[16.399451536508728,48.219521200372164]]}},{"type":"Feature","properties":{"old":"Tschechowgasse","new":"Slatingasse","n":4,"year":"1939"},"geometry":{"type":"LineString","coordinates":[[16.38003175971294,48.279444561394804],[16.37951064,48.2795476],[16.37895044,48.27966241],[16.378755860703347,48.27970180076993]]}},{"type":"Feature","properties":{"old":"Zwillinggasse","new":"Kinderasylgasse","st":"Zwillinggasse","hn":"","n":8,"year":"1939"},"geometry":{"type":"Point","coordinates":[16.3562,48.274]}}]}