{"type": "FeatureCollection", "features": [{"type": "Feature", "properties": {"old": "Kolpingstraße", "new": "Winarskystraße", "st": "Kolpingstraße", "hn": "21", "n": 90, "year": "1939"}, "geometry": {"type": "Point", "coordinates": [16.344, 48.1386]}}, {"type": "Feature", "properties": {"old": "Kolpingstraße", "new": "Winarskystraße", "st": "Kolpingstraße", "hn": "18", "n": 186, "year": "1939"}, "geometry": {"type": "Point", "coordinates": [16.3434, 48.1387]}}, {"type": "Feature", "properties": {"old": "Kolpingstraße", "new": "Winarskystraße", "st": "Kolpingstraße", "hn": "19", "n": 11, "year": "1939"}, "geometry": {"type": "Point", "coordinates": [16.3442, 48.1389]}}, {"type": "Feature", "properties": {"old": "Kolpingstraße", "new": "Winarskystraße", "st": "Kolpingstraße", "hn": "17", "n": 7, "year": "1939"}, "geometry": {"type": "Point", "coordinates": [16.3442, 48.1393]}}, {"type": "Feature", "properties": {"old": "Kolpingstraße", "new": "Winarskystraße", "st": "Kolpingstraße", "hn": "12", "n": 1, "year": "1939"}, "geometry": {"type": "Point", "coordinates": [16.3437, 48.1396]}}, {"type": "Feature", "properties": {"old": "Kolpingstraße", "new": "Winarskystraße", "st": "Kolpingstraße", "hn": "15-21", "n": 24, "year": "1939"}, "geometry": {"type": "Point", "coordinates": [16.3443, 48.1396]}}, {"type": "Feature", "properties": {"old": "Kolpingstraße", "new": "Winarskystraße", "st": "Kolpingstraße", "hn": "13", "n": 1, "year": "1939"}, "geometry": {"type": "Point", "coordinates": [16.3445, 48.1399]}}, {"type": "Feature", "properties": {"old": "Kolpingstraße", "new": "Winarskystraße", "st": "Kolpingstraße", "hn": "3", "n": 1, "year": "1939"}, "geometry": {"type": "Point", "coordinates": [16.3433, 48.1412]}}, {"type": "Feature", "properties": {"old": "Kolpingstraße", "new": "Winarskystraße", "st": "Kolpingstraße", "hn": "48", "n": 1, "year": "1939"}, "geometry": {"type": "Point", "coordinates": [16.3433, 48.1413]}}, {"type": "Feature", "properties": {"old": "Ganghofergasse", "new": "Mühlsangergasse", "st": "Ganghofergasse", "hn": "33", "n": 2, "year": "1939"}, "geometry": {"type": "Point", "coordinates": [16.4628, 48.1483]}}, {"type": "Feature", "properties": {"old": "Ganghofergasse", "new": "Mühlsangergasse", "st": "Ganghofergasse", "hn": "34", "n": 9, "year": "1939"}, "geometry": {"type": "Point", "coordinates": [16.4625, 48.1484]}}, {"type": "Feature", "properties": {"old": "Ganghofergasse", "new": "Mühlsangergasse", "st": "Ganghofergasse", "hn": "32", "n": 11, "year": "1939"}, "geometry": {"type": "Point", "coordinates": [16.4628, 48.1484]}}, {"type": "Feature", "properties": {"old": "Steinlegasse", "new": "Lang-Gasse", "st": "Steinlegasse", "hn": "", "n": 1, "year": "1939"}, "geometry": {"type": "Point", "coordinates": [16.2761, 48.1582]}}, {"type": "Feature", "properties": {"old": "Kempelengasse", "new": "Thavonatgasse", "st": "Kempelengasse", "hn": "16", "n": 40, "year": "1939"}, "geometry": {"type": "Point", "coordinates": [16.3932, 48.1736]}}, {"type": "Feature", "properties": {"old": "Kempelengasse", "new": "Thavonatgasse", "st": "Kempelengasse", "hn": "14", "n": 31, "year": "1939"}, "geometry": {"type": "Point", "coordinates": [16.3933, 48.1738]}}, {"type": "Feature", "properties": {"old": "Kempelengasse", "new": "Thavonatgasse", "st": "Kempelengasse", "hn": "10", "n": 6, "year": "1939"}, "geometry": {"type": "Point", "coordinates": [16.3934, 48.1741]}}, {"type": "Feature", "properties": {"old": "Kempelengasse", "new": "Thavonatgasse", "st": "Kempelengasse", "hn": "4", "n": 20, "year": "1939"}, "geometry": {"type": "Point", "coordinates": [16.3936, 48.1749]}}, {"type": "Feature", "properties": {"old": "Kempelengasse", "new": "Thavonatgasse", "st": "Kempelengasse", "hn": "2", "n": 25, "year": "1939"}, "geometry": {"type": "Point", "coordinates": [16.3937, 48.1751]}}, {"type": "Feature", "properties": {"old": "Starhemberggasse", "new": "Graf-Starhemberg-Gasse", "st": "Starhembergasse", "hn": "47", "n": 7, "year": "1939"}, "geometry": {"type": "Point", "coordinates": [16.37277, 48.18703]}}, {"type": "Feature", "properties": {"old": "Starhemberggasse", "new": "Graf-Starhemberg-Gasse", "st": "Starhembergasse", "hn": "44", "n": 25, "year": "1939"}, "geometry": {"type": "Point", "coordinates": [16.3723, 48.18709]}}, {"type": "Feature", "properties": {"old": "Starhemberggasse", "new": "Graf-Starhemberg-Gasse", "st": "Starhembergg. 45. H", "hn": "", "n": 9, "year": "1939"}, "geometry": {"type": "Point", "coordinates": [16.37264, 48.18719]}}, {"type": "Feature", "properties": {"old": "Starhemberggasse", "new": "Graf-Starhemberg-Gasse", "st": "Starhembergasse", "hn": "40", "n": 17, "year": "1939"}, "geometry": {"type": "Point", "coordinates": [16.37215, 48.18724]}}, {"type": "Feature", "properties": {"old": "Starhemberggasse", "new": "Graf-Starhemberg-Gasse", "st": "Starhembergasse", "hn": "43", "n": 11, "year": "1939"}, "geometry": {"type": "Point", "coordinates": [16.37251, 48.18734]}}, {"type": "Feature", "properties": {"old": "Starhemberggasse", "new": "Graf-Starhemberg-Gasse", "st": "Starhembergasse", "hn": "41", "n": 12, "year": "1939"}, "geometry": {"type": "Point", "coordinates": [16.37239, 48.18748]}}, {"type": "Feature", "properties": {"old": "Starhemberggasse", "new": "Graf-Starhemberg-Gasse", "st": "Starhembergasse", "hn": "38", "n": 2, "year": "1939"}, "geometry": {"type": "Point", "coordinates": [16.3719, 48.18765]}}, {"type": "Feature", "properties": {"old": "Starhemberggasse", "new": "Graf-Starhemberg-Gasse", "st": "Starhembergasse", "hn": "39", "n": 16, "year": "1939"}, "geometry": {"type": "Point", "coordinates": [16.37221, 48.18769]}}, {"type": "Feature", "properties": {"old": "Starhemberggasse", "new": "Graf-Starhemberg-Gasse", "st": "Starhembergg. 36, Wohn", "hn": "", "n": 1, "year": "1939"}, "geometry": {"type": "Point", "coordinates": [16.37166, 48.18782]}}, {"type": "Feature", "properties": {"old": "Starhemberggasse", "new": "Graf-Starhemberg-Gasse", "st": "Starhembergasse", "hn": "37", "n": 6, "year": "1939"}, "geometry": {"type": "Point", "coordinates": [16.37194, 48.18802]}}, {"type": "Feature", "properties": {"old": "Starhemberggasse", "new": "Graf-Starhemberg-Gasse", "st": "Starhembergg. 34, Wohn", "hn": "", "n": 9, "year": "1939"}, "geometry": {"type": "Point", "coordinates": [16.37145, 48.1881]}}, {"type": "Feature", "properties": {"old": "Starhemberggasse", "new": "Graf-Starhemberg-Gasse", "st": "Starhembergasse", "hn": "35", "n": 13, "year": "1939"}, "geometry": {"type": "Point", "coordinates": [16.37181, 48.18817]}}, {"type": "Feature", "properties": {"old": "Starhemberggasse", "new": "Graf-Starhemberg-Gasse", "st": "Starhembergasse", "hn": "32", "n": 18, "year": "1939"}, "geometry": {"type": "Point", "coordinates": [16.37129, 48.18828]}}, {"type": "Feature", "properties": {"old": "Starhemberggasse", "new": "Graf-Starhemberg-Gasse", "st": "Starhembergasse", "hn": "33", "n": 9, "year": "1939"}, "geometry": {"type": "Point", "coordinates": [16.37181, 48.18833]}}, {"type": "Feature", "properties": {"old": "Starhemberggasse", "new": "Graf-Starhemberg-Gasse", "st": "Starhembergasse", "hn": "31", "n": 5, "year": "1939"}, "geometry": {"type": "Point", "coordinates": [16.37156, 48.18851]}}, {"type": "Feature", "properties": {"old": "Starhemberggasse", "new": "Graf-Starhemberg-Gasse", "st": "Starhembergasse", "hn": "29", "n": 12, "year": "1939"}, "geometry": {"type": "Point", "coordinates": [16.3714, 48.18866]}}, {"type": "Feature", "properties": {"old": "Starhemberggasse", "new": "Graf-Starhemberg-Gasse", "st": "Starhembergasse", "hn": "30", "n": 1, "year": "1939"}, "geometry": {"type": "Point", "coordinates": [16.37105, 48.18867]}}, {"type": "Feature", "properties": {"old": "Starhemberggasse", "new": "Graf-Starhemberg-Gasse", "st": "Starhembergasse", "hn": "27", "n": 19, "year": "1939"}, "geometry": {"type": "Point", "coordinates": [16.37126, 48.18883]}}, {"type": "Feature", "properties": {"old": "Starhemberggasse", "new": "Graf-Starhemberg-Gasse", "st": "Starhembergasse", "hn": "28", "n": 7, "year": "1939"}, "geometry": {"type": "Point", "coordinates": [16.37086, 48.18888]}}, {"type": "Feature", "properties": {"old": "Starhemberggasse", "new": "Graf-Starhemberg-Gasse", "st": "Starhembergasse", "hn": "25", "n": 5, "year": "1939"}, "geometry": {"type": "Point", "coordinates": [16.37111, 48.189]}}, {"type": "Feature", "properties": {"old": "Starhemberggasse", "new": "Graf-Starhemberg-Gasse", "st": "Starhembergasse", "hn": "26", "n": 21, "year": "1939"}, "geometry": {"type": "Point", "coordinates": [16.37074, 48.18903]}}, {"type": "Feature", "properties": {"old": "Starhemberggasse", "new": "Graf-Starhemberg-Gasse", "st": "Starhembergasse", "hn": "23", "n": 8, "year": "1939"}, "geometry": {"type": "Point", "coordinates": [16.37096, 48.18919]}}, {"type": "Feature", "properties": {"old": "Starhemberggasse", "new": "Graf-Starhemberg-Gasse", "st": "Starhembergasse", "hn": "24", "n": 4, "year": "1939"}, "geometry": {"type": "Point", "coordinates": [16.37059, 48.18924]}}, {"type": "Feature", "properties": {"old": "Starhemberggasse", "new": "Graf-Starhemberg-Gasse", "st": "Starhembergasse", "hn": "21", "n": 12, "year": "1939"}, "geometry": {"type": "Point", "coordinates": [16.37081, 48.18936]}}, {"type": "Feature", "properties": {"old": "Starhemberggasse", "new": "Graf-Starhemberg-Gasse", "st": "Starhembergasse", "hn": "22", "n": 7, "year": "1939"}, "geometry": {"type": "Point", "coordinates": [16.37043, 48.18939]}}, {"type": "Feature", "properties": {"old": "Starhemberggasse", "new": "Graf-Starhemberg-Gasse", "st": "Starhembergasse", "hn": "20", "n": 8, "year": "1939"}, "geometry": {"type": "Point", "coordinates": [16.37018, 48.18969]}}, {"type": "Feature", "properties": {"old": "Starhemberggasse", "new": "Graf-Starhemberg-Gasse", "st": "Starhembergasse", "hn": "", "n": 30, "year": "1939"}, "geometry": {"type": "Point", "coordinates": [16.37032, 48.18974]}}, {"type": "Feature", "properties": {"old": "Starhemberggasse", "new": "Graf-Starhemberg-Gasse", "st": "Starhembergasse", "hn": "17", "n": 10, "year": "1939"}, "geometry": {"type": "Point", "coordinates": [16.37045, 48.18978]}}, {"type": "Feature", "properties": {"old": "Starhemberggasse", "new": "Graf-Starhemberg-Gasse", "st": "Starhembergasse", "hn": "18", "n": 9, "year": "1939"}, "geometry": {"type": "Point", "coordinates": [16.37006, 48.18984]}}, {"type": "Feature", "properties": {"old": "Starhemberggasse", "new": "Graf-Starhemberg-Gasse", "st": "Starhembergasse", "hn": "15", "n": 7, "year": "1939"}, "geometry": {"type": "Point", "coordinates": [16.37033, 48.18993]}}, {"type": "Feature", "properties": {"old": "Starhemberggasse", "new": "Graf-Starhemberg-Gasse", "st": "Starhembergasse", "hn": "16", "n": 12, "year": "1939"}, "geometry": {"type": "Point", "coordinates": [16.36995, 48.18997]}}, {"type": "Feature", "properties": {"old": "Starhemberggasse", "new": "Graf-Starhemberg-Gasse", "st": "Starhembergasse", "hn": "9", "n": 12, "year": "1939"}, "geometry": {"type": "Point", "coordinates": [16.36909, 48.19133]}}, {"type": "Feature", "properties": {"old": "Starhemberggasse", "new": "Graf-Starhemberg-Gasse", "st": "Starhembergasse", "hn": "8", "n": 1, "year": "1939"}, "geometry": {"type": "Point", "coordinates": [16.36879, 48.19135]}}, {"type": "Feature", "properties": {"old": "Starhemberggasse", "new": "Graf-Starhemberg-Gasse", "st": "Starhembergasse", "hn": "7", "n": 29, "year": "1939"}, "geometry": {"type": "Point", "coordinates": [16.36898, 48.19154]}}, {"type": "Feature", "properties": {"old": "Starhemberggasse", "new": "Graf-Starhemberg-Gasse", "st": "Starhembergasse", "hn": "6", "n": 11, "year": "1939"}, "geometry": {"type": "Point", "coordinates": [16.36855, 48.19164]}}, {"type": "Feature", "properties": {"old": "Starhemberggasse", "new": "Graf-Starhemberg-Gasse", "st": "Starhembergasse", "hn": "5", "n": 41, "year": "1939"}, "geometry": {"type": "Point", "coordinates": [16.36873, 48.19187]}}, {"type": "Feature", "properties": {"old": "Starhemberggasse", "new": "Graf-Starhemberg-Gasse", "st": "Starhembergasse", "hn": "4", "n": 19, "year": "1939"}, "geometry": {"type": "Point", "coordinates": [16.36829, 48.19194]}}, {"type": "Feature", "properties": {"old": "Starhemberggasse", "new": "Graf-Starhemberg-Gasse", "st": "Starhembergasse", "hn": "3", "n": 5, "year": "1939"}, "geometry": {"type": "Point", "coordinates": [16.36848, 48.19205]}}, {"type": "Feature", "properties": {"old": "Starhemberggasse", "new": "Graf-Starhemberg-Gasse", "st": "Starhembergasse", "hn": "2B", "n": 5, "year": "1939"}, "geometry": {"type": "Point", "coordinates": [16.36764, 48.19255]}}, {"type": "Feature", "properties": {"old": "Starhemberggasse", "new": "Graf-Starhemberg-Gasse", "st": "Starhembergasse", "hn": "1A", "n": 7, "year": "1939"}, "geometry": {"type": "Point", "coordinates": [16.3677, 48.19277]}}, {"type": "Feature", "properties": {"old": "Starhemberggasse", "new": "Graf-Starhemberg-Gasse", "st": "Starhembergasse", "hn": "", "n": 1, "year": "1939"}, "geometry": {"type": "Point", "coordinates": [16.36731, 48.19306]}}, {"type": "Feature", "properties": {"old": "Kriemhildplatz", "new": "Kanzlerplatz", "st": "Kriemhildplatz", "hn": "", "n": 92, "year": "1939"}, "geometry": {"type": "Point", "coordinates": [16.3282, 48.2022]}}, {"type": "Feature", "properties": {"old": "Adolf Hitler-Platz", "new": "Rathausplatz", "st": "Adolf Hitler=Platz", "hn": "8", "n": 7, "year": "1939"}, "geometry": {"type": "Point", "coordinates": [16.3577, 48.2095]}}, {"type": "Feature", "properties": {"old": "Adolf Hitler-Platz", "new": "Rathausplatz", "st": "Adolf Hitler=Platz", "hn": "2", "n": 3, "year": "1939"}, "geometry": {"type": "Point", "coordinates": [16.3578, 48.2119]}}, {"type": "Feature", "properties": {"old": "Adolf Hitler-Platz", "new": "Rathausplatz", "st": "Adolf Hitler=Platz", "hn": "3", "n": 3, "year": "1939"}, "geometry": {"type": "Point", "coordinates": [16.3585, 48.212]}}, {"type": "Feature", "properties": {"old": "Adolf Hitler-Platz", "new": "Rathausplatz", "st": "Adolf Hitler=Platz", "hn": "4", "n": 2, "year": "1939"}, "geometry": {"type": "Point", "coordinates": [16.3585, 48.2122]}}, {"type": "Feature", "properties": {"old": "Frankhplatz", "new": "Alser-Platz", "st": "Frankhplatz", "hn": "", "n": 9, "year": "1939"}, "geometry": {"type": "Point", "coordinates": [16.3557, 48.2136]}}, {"type": "Feature", "properties": {"old": "Kernstockplatz", "new": "Familienplatz", "st": "Kernstockplatz", "hn": "2", "n": 8, "year": "1939"}, "geometry": {"type": "Point", "coordinates": [16.31794, 48.21398]}}, {"type": "Feature", "properties": {"old": "Kernstockplatz", "new": "Familienplatz", "st": "Kernstockplatz", "hn": "3", "n": 5, "year": "1939"}, "geometry": {"type": "Point", "coordinates": [16.31777, 48.21429]}}, {"type": "Feature", "properties": {"old": "Kernstockplatz", "new": "Familienplatz", "st": "Kernstockplatz", "hn": "4", "n": 11, "year": "1939"}, "geometry": {"type": "Point", "coordinates": [16.31782, 48.21442]}}, {"type": "Feature", "properties": {"old": "Kernstockplatz", "new": "Familienplatz", "st": "Kernstockplatz", "hn": "12", "n": 19, "year": "1939"}, "geometry": {"type": "Point", "coordinates": [16.31924, 48.21452]}}, {"type": "Feature", "properties": {"old": "Kernstockplatz", "new": "Familienplatz", "st": "Kernstockplatz", "hn": "", "n": 1, "year": "1939"}, "geometry": {"type": "Point", "coordinates": [16.31847, 48.21454]}}, {"type": "Feature", "properties": {"old": "Kernstockplatz", "new": "Familienplatz", "st": "Kernstockplatz", "hn": "5", "n": 2, "year": "1939"}, "geometry": {"type": "Point", "coordinates": [16.31786, 48.21455]}}, {"type": "Feature", "properties": {"old": "Kernstockplatz", "new": "Familienplatz", "st": "Kernstockplatz", "hn": "", "n": 9, "year": "1939"}, "geometry": {"type": "Point", "coordinates": [16.31926, 48.21466]}}, {"type": "Feature", "properties": {"old": "Kernstockplatz", "new": "Familienplatz", "st": "Kernstockplatz", "hn": "6", "n": 9, "year": "1939"}, "geometry": {"type": "Point", "coordinates": [16.31792, 48.21471]}}, {"type": "Feature", "properties": {"old": "Kernstockplatz", "new": "Familienplatz", "st": "Kernstockplatz", "hn": "10", "n": 15, "year": "1939"}, "geometry": {"type": "Point", "coordinates": [16.31928, 48.21479]}}, {"type": "Feature", "properties": {"old": "Frankhplatz", "new": "Alser-Platz", "st": "Frankhplatz", "hn": "2", "n": 1, "year": "1939"}, "geometry": {"type": "Point", "coordinates": [16.3564, 48.215]}}, {"type": "Feature", "properties": {"old": "Kernstockplatz", "new": "Familienplatz", "st": "Kernstockplatz", "hn": "8", "n": 5, "year": "1939"}, "geometry": {"type": "Point", "coordinates": [16.31857, 48.21513]}}, {"type": "Feature", "properties": {"old": "Kernstockplatz", "new": "Familienplatz", "st": "Kernstockplatz 9, Wohn", "hn": "", "n": 1, "year": "1939"}, "geometry": {"type": "Point", "coordinates": [16.319, 48.21519]}}, {"type": "Feature", "properties": {"old": "Planettaplatz", "new": "Parhamerplatz", "st": "Planettaplatz", "hn": "8", "n": 6, "year": "1939"}, "geometry": {"type": "Point", "coordinates": [16.3275, 48.2155]}}, {"type": "Feature", "properties": {"old": "Planettaplatz", "new": "Parhamerplatz", "st": "Planettaplatz", "hn": "7", "n": 3, "year": "1939"}, "geometry": {"type": "Point", "coordinates": [16.3276, 48.2155]}}, {"type": "Feature", "properties": {"old": "Planettaplatz", "new": "Parhamerplatz", "st": "Planettapl.", "hn": "6", "n": 29, "year": "1939"}, "geometry": {"type": "Point", "coordinates": [16.3278, 48.2155]}}, {"type": "Feature", "properties": {"old": "Frankhplatz", "new": "Alser-Platz", "st": "Frankhplatz", "hn": "3", "n": 2, "year": "1939"}, "geometry": {"type": "Point", "coordinates": [16.3553, 48.2155]}}, {"type": "Feature", "properties": {"old": "Planettaplatz", "new": "Parhamerplatz", "st": "Planettaplatz", "hn": "9", "n": 6, "year": "1939"}, "geometry": {"type": "Point", "coordinates": [16.3272, 48.2156]}}, {"type": "Feature", "properties": {"old": "Planettaplatz", "new": "Parhamerplatz", "st": "Planettaplatz", "hn": "10", "n": 11, "year": "1939"}, "geometry": {"type": "Point", "coordinates": [16.3272, 48.2158]}}, {"type": "Feature", "properties": {"old": "Planettaplatz", "new": "Parhamerplatz", "st": "Planettaplatz", "hn": "13", "n": 3, "year": "1939"}, "geometry": {"type": "Point", "coordinates": [16.3271, 48.2164]}}, {"type": "Feature", "properties": {"old": "Planettaplatz", "new": "Parhamerplatz", "st": "Planettaplatz", "hn": "15", "n": 21, "year": "1939"}, "geometry": {"type": "Point", "coordinates": [16.3274, 48.2166]}}, {"type": "Feature", "properties": {"old": "Planettaplatz", "new": "Parhamerplatz", "st": "Planettaplatz", "hn": "16", "n": 1, "year": "1939"}, "geometry": {"type": "Point", "coordinates": [16.3276, 48.2166]}}, {"type": "Feature", "properties": {"old": "Planettaplatz", "new": "Parhamerplatz", "st": "Planettaplatz", "hn": "17", "n": 10, "year": "1939"}, "geometry": {"type": "Point", "coordinates": [16.3279, 48.2166]}}, {"type": "Feature", "properties": {"old": "Sterneckplatz", "new": "Max-Winter-Platz", "st": "Sterneckplatz", "hn": "17", "n": 15, "year": "1939"}, "geometry": {"type": "Point", "coordinates": [16.40082, 48.21939]}}, {"type": "Feature", "properties": {"old": "Sterneckplatz", "new": "Max-Winter-Platz", "st": "Sterneckplatz", "hn": "22", "n": 22, "year": "1939"}, "geometry": {"type": "Point", "coordinates": [16.39946, 48.2194]}}, {"type": "Feature", "properties": {"old": "Sterneckplatz", "new": "Max-Winter-Platz", "st": "Sterneckplatz", "hn": "21", "n": 22, "year": "1939"}, "geometry": {"type": "Point", "coordinates": [16.39971, 48.2194]}}, {"type": "Feature", "properties": {"old": "Sterneckplatz", "new": "Max-Winter-Platz", "st": "Sterneckplatz", "hn": "20", "n": 31, "year": "1939"}, "geometry": {"type": "Point", "coordinates": [16.39999, 48.2194]}}, {"type": "Feature", "properties": {"old": "Sterneckplatz", "new": "Max-Winter-Platz", "st": "Sterneckplatz", "hn": "19", "n": 23, "year": "1939"}, "geometry": {"type": "Point", "coordinates": [16.40023, 48.2194]}}, {"type": "Feature", "properties": {"old": "Sterneckplatz", "new": "Max-Winter-Platz", "st": "Sterneckplatz", "hn": "18", "n": 20, "year": "1939"}, "geometry": {"type": "Point", "coordinates": [16.40052, 48.2194]}}, {"type": "Feature", "properties": {"old": "Sterneckplatz", "new": "Max-Winter-Platz", "st": "Sterneckplatz", "hn": "15", "n": 29, "year": "1939"}, "geometry": {"type": "Point", "coordinates": [16.40116, 48.21986]}}, {"type": "Feature", "properties": {"old": "Sterneckplatz", "new": "Max-Winter-Platz", "st": "Sterneckplatz", "hn": "14", "n": 24, "year": "1939"}, "geometry": {"type": "Point", "coordinates": [16.40107, 48.22004]}}, {"type": "Feature", "properties": {"old": "Sterneckplatz", "new": "Max-Winter-Platz", "st": "Sterneckplatz", "hn": "2", "n": 3, "year": "1939"}, "geometry": {"type": "Point", "coordinates": [16.39944, 48.22018]}}, {"type": "Feature", "properties": {"old": "Sterneckplatz", "new": "Max-Winter-Platz", "st": "Sterneckplatz", "hn": "13", "n": 37, "year": "1939"}, "geometry": {"type": "Point", "coordinates": [16.40098, 48.22022]}}, {"type": "Feature", "properties": {"old": "Sterneckplatz", "new": "Max-Winter-Platz", "st": "Sterneckplatz", "hn": "", "n": 63, "year": "1939"}, "geometry": {"type": "Point", "coordinates": [16.40016, 48.22023]}}, {"type": "Feature", "properties": {"old": "Reichsbrückenstraße", "new": "Lassallestraße", "st": "Reichsbrückenstr", "hn": "1", "n": 1, "year": "1939"}, "geometry": {"type": "Point", "coordinates": [16.39403, 48.22043]}}, {"type": "Feature", "properties": {"old": "Sterneckplatz", "new": "Max-Winter-Platz", "st": "Sterneckplatz", "hn": "12", "n": 22, "year": "1939"}, "geometry": {"type": "Point", "coordinates": [16.40097, 48.22052]}}, {"type": "Feature", "properties": {"old": "Sterneckplatz", "new": "Max-Winter-Platz", "st": "Sterneckplatz", "hn": "3", "n": 24, "year": "1939"}, "geometry": {"type": "Point", "coordinates": [16.39886, 48.22054]}}, {"type": "Feature", "properties": {"old": "Sterneckplatz", "new": "Max-Winter-Platz", "st": "Sterneckplatz", "hn": "4", "n": 24, "year": "1939"}, "geometry": {"type": "Point", "coordinates": [16.39907, 48.22066]}}, {"type": "Feature", "properties": {"old": "Reichsbrückenstraße", "new": "Lassallestraße", "st": "Reichsbrückenstr", "hn": "2", "n": 2, "year": "1939"}, "geometry": {"type": "Point", "coordinates": [16.39615, 48.22071]}}, {"type": "Feature", "properties": {"old": "Sterneckplatz", "new": "Max-Winter-Platz", "st": "Sterneckplatz", "hn": "5", "n": 24, "year": "1939"}, "geometry": {"type": "Point", "coordinates": [16.39929, 48.22077]}}, {"type": "Feature", "properties": {"old": "Reichsbrückenstraße", "new": "Lassallestraße", "st": "Reichsbrückenstr", "hn": "4", "n": 20, "year": "1939"}, "geometry": {"type": "Point", "coordinates": [16.3963, 48.22079]}}, {"type": "Feature", "properties": {"old": "Maulpertschplatz", "new": "Matteottiplatz", "st": "Maulpertschplatz", "hn": "2", "n": 54, "year": "1939"}, "geometry": {"type": "Point", "coordinates": [16.3051, 48.2208]}}, {"type": "Feature", "properties": {"old": "Reichsbrückenstraße", "new": "Lassallestraße", "st": "Reichsbrückenstraße", "hn": "4", "n": 1, "year": "1939"}, "geometry": {"type": "Point", "coordinates": [16.3963, 48.2208]}}, {"type": "Feature", "properties": {"old": "Sterneckplatz", "new": "Max-Winter-Platz", "st": "Sterneckplatz", "hn": "6", "n": 21, "year": "1939"}, "geometry": {"type": "Point", "coordinates": [16.39945, 48.22084]}}, {"type": "Feature", "properties": {"old": "Reichsbrückenstraße", "new": "Lassallestraße", "st": "Reichsbrückenstraße", "hn": "6", "n": 2, "year": "1939"}, "geometry": {"type": "Point", "coordinates": [16.3965, 48.2209]}}, {"type": "Feature", "properties": {"old": "Reichsbrückenstraße", "new": "Lassallestraße", "st": "Reichsbrückenstr", "hn": "6", "n": 17, "year": "1939"}, "geometry": {"type": "Point", "coordinates": [16.39651, 48.2209]}}, {"type": "Feature", "properties": {"old": "Sterneckplatz", "new": "Max-Winter-Platz", "st": "Sterneckplatz", "hn": "10", "n": 22, "year": "1939"}, "geometry": {"type": "Point", "coordinates": [16.40061, 48.22093]}}, {"type": "Feature", "properties": {"old": "Sterneckplatz", "new": "Max-Winter-Platz", "st": "Sterneckplatz", "hn": "7", "n": 21, "year": "1939"}, "geometry": {"type": "Point", "coordinates": [16.3997, 48.22099]}}, {"type": "Feature", "properties": {"old": "Reichsbrückenstraße", "new": "Lassallestraße", "st": "Reichsbrückenstr", "hn": "8", "n": 19, "year": "1939"}, "geometry": {"type": "Point", "coordinates": [16.39669, 48.221]}}, {"type": "Feature", "properties": {"old": "Sterneckplatz", "new": "Max-Winter-Platz", "st": "Sterneckplatz", "hn": "9", "n": 36, "year": "1939"}, "geometry": {"type": "Point", "coordinates": [16.40053, 48.22106]}}, {"type": "Feature", "properties": {"old": "Reichsbrückenstraße", "new": "Lassallestraße", "st": "Reichsbrückenstraße", "hn": "10", "n": 3, "year": "1939"}, "geometry": {"type": "Point", "coordinates": [16.3969, 48.2211]}}, {"type": "Feature", "properties": {"old": "Sterneckplatz", "new": "Max-Winter-Platz", "st": "Sterneckplatz", "hn": "8", "n": 14, "year": "1939"}, "geometry": {"type": "Point", "coordinates": [16.39993, 48.22112]}}, {"type": "Feature", "properties": {"old": "Reichsbrückenstraße", "new": "Lassallestraße", "st": "Reichsbrückenstr", "hn": "10", "n": 21, "year": "1939"}, "geometry": {"type": "Point", "coordinates": [16.39693, 48.22113]}}, {"type": "Feature", "properties": {"old": "Reichsbrückenstraße", "new": "Lassallestraße", "st": "Reichsbrückenstr", "hn": "12", "n": 11, "year": "1939"}, "geometry": {"type": "Point", "coordinates": [16.39717, 48.22126]}}, {"type": "Feature", "properties": {"old": "Reichsbrückenstraße", "new": "Lassallestraße", "st": "Reichsbrückenstraße", "hn": "12", "n": 2, "year": "1939"}, "geometry": {"type": "Point", "coordinates": [16.3972, 48.2213]}}, {"type": "Feature", "properties": {"old": "Reichsbrückenstraße", "new": "Lassallestraße", "st": "Reichsbrückenstraße", "hn": "14", "n": 5, "year": "1939"}, "geometry": {"type": "Point", "coordinates": [16.3977, 48.2215]}}, {"type": "Feature", "properties": {"old": "Reichsbrückenstraße", "new": "Lassallestraße", "st": "Reichsbrückenstr", "hn": "14", "n": 9, "year": "1939"}, "geometry": {"type": "Point", "coordinates": [16.39766, 48.22152]}}, {"type": "Feature", "properties": {"old": "Reichsbrückenstraße", "new": "Lassallestraße", "st": "Reichsbrückenstr", "hn": "3", "n": 1, "year": "1939"}, "geometry": {"type": "Point", "coordinates": [16.39438, 48.22155]}}, {"type": "Feature", "properties": {"old": "Reichsbrückenstraße", "new": "Lassallestraße", "st": "Reichsbrückenstr", "hn": "20", "n": 14, "year": "1939"}, "geometry": {"type": "Point", "coordinates": [16.39829, 48.22186]}}, {"type": "Feature", "properties": {"old": "Reichsbrückenstraße", "new": "Lassallestraße", "st": "Reichsbrückenstraße", "hn": "20", "n": 2, "year": "1939"}, "geometry": {"type": "Point", "coordinates": [16.3983, 48.2219]}}, {"type": "Feature", "properties": {"old": "Reichsbrückenstraße", "new": "Lassallestraße", "st": "Reichsbrückenstr", "hn": "22", "n": 17, "year": "1939"}, "geometry": {"type": "Point", "coordinates": [16.3985, 48.22197]}}, {"type": "Feature", "properties": {"old": "Reichsbrückenstraße", "new": "Lassallestraße", "st": "Reichsbrückenstraße", "hn": "22", "n": 3, "year": "1939"}, "geometry": {"type": "Point", "coordinates": [16.3985, 48.222]}}, {"type": "Feature", "properties": {"old": "Reichsbrückenstraße", "new": "Lassallestraße", "st": "Reichsbrückenstraße", "hn": "26", "n": 2, "year": "1939"}, "geometry": {"type": "Point", "coordinates": [16.3992, 48.2223]}}, {"type": "Feature", "properties": {"old": "Reichsbrückenstraße", "new": "Lassallestraße", "st": "Reichsbrückenstr", "hn": "26", "n": 18, "year": "1939"}, "geometry": {"type": "Point", "coordinates": [16.39917, 48.22234]}}, {"type": "Feature", "properties": {"old": "Reichsbrückenstraße", "new": "Lassallestraße", "st": "Reichsbrückenstr", "hn": "28", "n": 13, "year": "1939"}, "geometry": {"type": "Point", "coordinates": [16.39946, 48.2225]}}, {"type": "Feature", "properties": {"old": "Reichsbrückenstraße", "new": "Lassallestraße", "st": "Reichsbrückenstraße", "hn": "28", "n": 1, "year": "1939"}, "geometry": {"type": "Point", "coordinates": [16.3995, 48.2225]}}, {"type": "Feature", "properties": {"old": "Reichsbrückenstraße", "new": "Lassallestraße", "st": "Reichsbrückenstr", "hn": "30", "n": 20, "year": "1939"}, "geometry": {"type": "Point", "coordinates": [16.39962, 48.22258]}}, {"type": "Feature", "properties": {"old": "Reichsbrückenstraße", "new": "Lassallestraße", "st": "Reichsbrückenstraße", "hn": "30", "n": 5, "year": "1939"}, "geometry": {"type": "Point", "coordinates": [16.3996, 48.2226]}}, {"type": "Feature", "properties": {"old": "Reichsbrückenstraße", "new": "Lassallestraße", "st": "Reichsbrückenstr", "hn": "", "n": 86, "year": "1939"}, "geometry": {"type": "Point", "coordinates": [16.39912, 48.22264]}}, {"type": "Feature", "properties": {"old": "Reichsbrückenstraße", "new": "Lassallestraße", "st": "Reichsbrückenstr", "hn": "32", "n": 11, "year": "1939"}, "geometry": {"type": "Point", "coordinates": [16.39982, 48.22269]}}, {"type": "Feature", "properties": {"old": "Maulpertschplatz", "new": "Matteottiplatz", "st": "Maulpertschplatz", "hn": "6", "n": 8, "year": "1939"}, "geometry": {"type": "Point", "coordinates": [16.3057, 48.2227]}}, {"type": "Feature", "properties": {"old": "Reichsbrückenstraße", "new": "Lassallestraße", "st": "Reichsbrückenstraße", "hn": "32", "n": 1, "year": "1939"}, "geometry": {"type": "Point", "coordinates": [16.3998, 48.2227]}}, {"type": "Feature", "properties": {"old": "Reichsbrückenstraße", "new": "Lassallestraße", "st": "Reichsbrückenstr", "hn": "9", "n": 2, "year": "1939"}, "geometry": {"type": "Point", "coordinates": [16.39865, 48.22278]}}, {"type": "Feature", "properties": {"old": "Reichsbrückenstraße", "new": "Lassallestraße", "st": "Reichsbrückenstraße", "hn": "34", "n": 1, "year": "1939"}, "geometry": {"type": "Point", "coordinates": [16.4, 48.2228]}}, {"type": "Feature", "properties": {"old": "Reichsbrückenstraße", "new": "Lassallestraße", "st": "Reichsbrückenstr", "hn": "34", "n": 14, "year": "1939"}, "geometry": {"type": "Point", "coordinates": [16.40002, 48.2228]}}, {"type": "Feature", "properties": {"old": "Reichsbrückenstraße", "new": "Lassallestraße", "st": "Reichsbrückenstr", "hn": "36", "n": 15, "year": "1939"}, "geometry": {"type": "Point", "coordinates": [16.40026, 48.22293]}}, {"type": "Feature", "properties": {"old": "Eberhartgasse", "new": "Liebknechtgasse", "st": "Eberhartgasse", "hn": "36", "n": 4, "year": "1939"}, "geometry": {"type": "Point", "coordinates": [16.3046, 48.223]}}, {"type": "Feature", "properties": {"old": "Maulpertschplatz", "new": "Matteottiplatz", "st": "Maulpertschplatz", "hn": "4-5", "n": 1, "year": "1939"}, "geometry": {"type": "Point", "coordinates": [16.3052, 48.223]}}, {"type": "Feature", "properties": {"old": "Maulpertschplatz", "new": "Matteottiplatz", "st": "Maulpertschplatz", "hn": "5", "n": 4, "year": "1939"}, "geometry": {"type": "Point", "coordinates": [16.3055, 48.223]}}, {"type": "Feature", "properties": {"old": "Reichsbrückenstraße", "new": "Lassallestraße", "st": "Reichsbrückenstr", "hn": "40", "n": 135, "year": "1939"}, "geometry": {"type": "Point", "coordinates": [16.40171, 48.22337]}}, {"type": "Feature", "properties": {"old": "Reichsbrückenstraße", "new": "Lassallestraße", "st": "Reichsbrückenstraße", "hn": "", "n": 38, "year": "1939"}, "geometry": {"type": "Point", "coordinates": [16.4017, 48.2234]}}, {"type": "Feature", "properties": {"old": "Erzherzog-Karl-Platz", "new": "Mexikoplatz", "st": "Erzherzog Karl=Platz", "hn": "17", "n": 6, "year": "1939"}, "geometry": {"type": "Point", "coordinates": [16.40496, 48.2235]}}, {"type": "Feature", "properties": {"old": "Reichsbrückenstraße", "new": "Lassallestraße", "st": "Reichsbrückenstr", "hn": "11", "n": 1, "year": "1939"}, "geometry": {"type": "Point", "coordinates": [16.40038, 48.22352]}}, {"type": "Feature", "properties": {"old": "Erzherzog-Karl-Platz", "new": "Mexikoplatz", "st": "Erzh. Karl-Platz", "hn": "18", "n": 15, "year": "1939"}, "geometry": {"type": "Point", "coordinates": [16.40411, 48.22353]}}, {"type": "Feature", "properties": {"old": "Reichsbrückenstraße", "new": "Lassallestraße", "st": "Reichsbrückenstraße", "hn": "13", "n": 1, "year": "1939"}, "geometry": {"type": "Point", "coordinates": [16.4006, 48.2236]}}, {"type": "Feature", "properties": {"old": "Erzherzog-Karl-Platz", "new": "Mexikoplatz", "st": "Erzh. Karl-Platz", "hn": "16", "n": 11, "year": "1939"}, "geometry": {"type": "Point", "coordinates": [16.4052, 48.22363]}}, {"type": "Feature", "properties": {"old": "Reichsbrückenstraße", "new": "Lassallestraße", "st": "Reichsbrückenstr", "hn": "13", "n": 14, "year": "1939"}, "geometry": {"type": "Point", "coordinates": [16.40061, 48.22364]}}, {"type": "Feature", "properties": {"old": "Erzherzog-Karl-Platz", "new": "Mexikoplatz", "st": "Erzherzog Karl=Platz", "hn": "19", "n": 19, "year": "1939"}, "geometry": {"type": "Point", "coordinates": [16.40391, 48.22369]}}, {"type": "Feature", "properties": {"old": "Reichsbrückenstraße", "new": "Lassallestraße", "st": "Reichsbrückenstr", "hn": "15", "n": 16, "year": "1939"}, "geometry": {"type": "Point", "coordinates": [16.40081, 48.22375]}}, {"type": "Feature", "properties": {"old": "Erzherzog-Karl-Platz", "new": "Mexikoplatz", "st": "Erzh. Karl-Platz", "hn": "15", "n": 10, "year": "1939"}, "geometry": {"type": "Point", "coordinates": [16.40542, 48.22375]}}, {"type": "Feature", "properties": {"old": "Reichsbrückenstraße", "new": "Lassallestraße", "st": "Reichsbrückenstr", "hn": "17", "n": 11, "year": "1939"}, "geometry": {"type": "Point", "coordinates": [16.40101, 48.22386]}}, {"type": "Feature", "properties": {"old": "Reichsbrückenstraße", "new": "Lassallestraße", "st": "Reichsbrückenstraße", "hn": "17", "n": 1, "year": "1939"}, "geometry": {"type": "Point", "coordinates": [16.401, 48.2239]}}, {"type": "Feature", "properties": {"old": "Erzherzog-Karl-Platz", "new": "Mexikoplatz", "st": "Erzh. Karl-Platz", "hn": "20", "n": 43, "year": "1939"}, "geometry": {"type": "Point", "coordinates": [16.40362, 48.22392]}}, {"type": "Feature", "properties": {"old": "Reichsbrückenstraße", "new": "Lassallestraße", "st": "Reichsbrückenstr", "hn": "42", "n": 7, "year": "1939"}, "geometry": {"type": "Point", "coordinates": [16.40246, 48.22399]}}, {"type": "Feature", "properties": {"old": "Reichsbrückenstraße", "new": "Lassallestraße", "st": "Reichsbrückenstr", "hn": "44", "n": 14, "year": "1939"}, "geometry": {"type": "Point", "coordinates": [16.40272, 48.22408]}}, {"type": "Feature", "properties": {"old": "Reichsbrückenstraße", "new": "Lassallestraße", "st": "Reichsbrückenstraße", "hn": "44", "n": 2, "year": "1939"}, "geometry": {"type": "Point", "coordinates": [16.4027, 48.2241]}}, {"type": "Feature", "properties": {"old": "Erzherzog-Karl-Platz", "new": "Mexikoplatz", "st": "Erzh. Karl-Platz", "hn": "21", "n": 18, "year": "1939"}, "geometry": {"type": "Point", "coordinates": [16.40333, 48.22416]}}, {"type": "Feature", "properties": {"old": "Reichsbrückenstraße", "new": "Lassallestraße", "st": "Reichsbrückenstr", "hn": "46", "n": 15, "year": "1939"}, "geometry": {"type": "Point", "coordinates": [16.40288, 48.22426]}}, {"type": "Feature", "properties": {"old": "Reichsbrückenstraße", "new": "Lassallestraße", "st": "Reichsbrückenstraße", "hn": "46", "n": 2, "year": "1939"}, "geometry": {"type": "Point", "coordinates": [16.4029, 48.2243]}}, {"type": "Feature", "properties": {"old": "Reichsbrückenstraße", "new": "Lassallestraße", "st": "Reichsbrückenstr", "hn": "25", "n": 5, "year": "1939"}, "geometry": {"type": "Point", "coordinates": [16.40212, 48.22455]}}, {"type": "Feature", "properties": {"old": "Erzherzog-Karl-Platz", "new": "Mexikoplatz", "st": "Erzherzog Karl=Platz", "hn": "23", "n": 5, "year": "1939"}, "geometry": {"type": "Point", "coordinates": [16.40243, 48.22488]}}, {"type": "Feature", "properties": {"old": "Erzherzog-Karl-Platz", "new": "Mexikoplatz", "st": "Erzh. Karl-Platz", "hn": "24", "n": 10, "year": "1939"}, "geometry": {"type": "Point", "coordinates": [16.40228, 48.22501]}}, {"type": "Feature", "properties": {"old": "Erzherzog-Karl-Platz", "new": "Mexikoplatz", "st": "Erzh. Karl=Platz Nr. 19, Wohn", "hn": "", "n": 42, "year": "1939"}, "geometry": {"type": "Point", "coordinates": [16.40405, 48.22506]}}, {"type": "Feature", "properties": {"old": "Althanplatz", "new": "Julius-Tandler-Platz", "st": "Althanplatz", "hn": "", "n": 24, "year": "1939"}, "geometry": {"type": "Point", "coordinates": [16.36057, 48.22518]}}, {"type": "Feature", "properties": {"old": "Althanplatz", "new": "Julius-Tandler-Platz", "st": "Althanplatz", "hn": "10", "n": 24, "year": "1939"}, "geometry": {"type": "Point", "coordinates": [16.36078, 48.22523]}}, {"type": "Feature", "properties": {"old": "Althanplatz", "new": "Julius-Tandler-Platz", "st": "Althanplatz", "hn": "9", "n": 16, "year": "1939"}, "geometry": {"type": "Point", "coordinates": [16.36101, 48.22528]}}, {"type": "Feature", "properties": {"old": "Erzherzog-Karl-Platz", "new": "Mexikoplatz", "st": "Erzh. Karl-Platz", "hn": "25", "n": 19, "year": "1939"}, "geometry": {"type": "Point", "coordinates": [16.40176, 48.22531]}}, {"type": "Feature", "properties": {"old": "Althanplatz", "new": "Julius-Tandler-Platz", "st": "Althanplatz", "hn": "1", "n": 1, "year": "1939"}, "geometry": {"type": "Point", "coordinates": [16.36005, 48.22535]}}, {"type": "Feature", "properties": {"old": "Althanplatz", "new": "Julius-Tandler-Platz", "st": "Althanplatz", "hn": "8", "n": 13, "year": "1939"}, "geometry": {"type": "Point", "coordinates": [16.36149, 48.22539]}}, {"type": "Feature", "properties": {"old": "Erzherzog-Karl-Platz", "new": "Mexikoplatz", "st": "Erzherzog Karl=Platz", "hn": "26", "n": 10, "year": "1939"}, "geometry": {"type": "Point", "coordinates": [16.40165, 48.22553]}}, {"type": "Feature", "properties": {"old": "Althanplatz", "new": "Julius-Tandler-Platz", "st": "Althanplatz", "hn": "7", "n": 7, "year": "1939"}, "geometry": {"type": "Point", "coordinates": [16.36218, 48.22555]}}, {"type": "Feature", "properties": {"old": "Althanplatz", "new": "Julius-Tandler-Platz", "st": "Althanplatz", "hn": "", "n": 18, "year": "1939"}, "geometry": {"type": "Point", "coordinates": [16.36254, 48.22563]}}, {"type": "Feature", "properties": {"old": "Althanplatz", "new": "Julius-Tandler-Platz", "st": "Althanplatz", "hn": "2", "n": 18, "year": "1939"}, "geometry": {"type": "Point", "coordinates": [16.36028, 48.22564]}}, {"type": "Feature", "properties": {"old": "Althanplatz", "new": "Julius-Tandler-Platz", "st": "Althan. . Hermine, städt.Angest., XVII", "hn": "", "n": 14, "year": "1939"}, "geometry": {"type": "Point", "coordinates": [16.36132, 48.22565]}}, {"type": "Feature", "properties": {"old": "Krütznergasse", "new": "Exnergasse", "st": "Krütznergasse", "hn": "3", "n": 10, "year": "1939"}, "geometry": {"type": "Point", "coordinates": [16.3486, 48.2257]}}, {"type": "Feature", "properties": {"old": "Krütznergasse", "new": "Exnergasse", "st": "Krütznergasse", "hn": "4", "n": 10, "year": "1939"}, "geometry": {"type": "Point", "coordinates": [16.3487, 48.2258]}}, {"type": "Feature", "properties": {"old": "Althanplatz", "new": "Julius-Tandler-Platz", "st": "Althanplatz", "hn": "2A", "n": 11, "year": "1939"}, "geometry": {"type": "Point", "coordinates": [16.36023, 48.22583]}}, {"type": "Feature", "properties": {"old": "Althanplatz", "new": "Julius-Tandler-Platz", "st": "Althanplatz", "hn": "", "n": 20, "year": "1939"}, "geometry": {"type": "Point", "coordinates": [16.36288, 48.2259]}}, {"type": "Feature", "properties": {"old": "Althanplatz", "new": "Julius-Tandler-Platz", "st": "Althanplatz", "hn": "4", "n": 9, "year": "1939"}, "geometry": {"type": "Point", "coordinates": [16.36246, 48.22615]}}, {"type": "Feature", "properties": {"old": "Althanplatz", "new": "Julius-Tandler-Platz", "st": "Althanplatz", "hn": "3", "n": 19, "year": "1939"}, "geometry": {"type": "Point", "coordinates": [16.36123, 48.22628]}}, {"type": "Feature", "properties": {"old": "Erzherzog-Karl-Platz", "new": "Mexikoplatz", "st": "Erzh. Karl-Platz", "hn": "2", "n": 1, "year": "1939"}, "geometry": {"type": "Point", "coordinates": [16.4027, 48.22719]}}, {"type": "Feature", "properties": {"old": "Erzherzog-Karl-Platz", "new": "Mexikoplatz", "st": "Erzh. Karl-Platz", "hn": "4", "n": 2, "year": "1939"}, "geometry": {"type": "Point", "coordinates": [16.40369, 48.22732]}}, {"type": "Feature", "properties": {"old": "Pater-Abel-Platz", "new": "Friedrich-Engels-Platz", "st": "Pater Abel-Platz", "hn": "21", "n": 1, "year": "1939"}, "geometry": {"type": "Point", "coordinates": [16.38066, 48.24378]}}, {"type": "Feature", "properties": {"old": "Pater-Abel-Platz", "new": "Friedrich-Engels-Platz", "st": "Pater Abel=Platz Wohn. Nr.", "hn": "20", "n": 17, "year": "1939"}, "geometry": {"type": "Point", "coordinates": [16.38005, 48.24383]}}, {"type": "Feature", "properties": {"old": "Pater-Abel-Platz", "new": "Friedrich-Engels-Platz", "st": "Pater Abel-Platz", "hn": "19", "n": 27, "year": "1939"}, "geometry": {"type": "Point", "coordinates": [16.38053, 48.24397]}}, {"type": "Feature", "properties": {"old": "Pater-Abel-Platz", "new": "Friedrich-Engels-Platz", "st": "Pater Abel-Platz", "hn": "15", "n": 2, "year": "1939"}, "geometry": {"type": "Point", "coordinates": [16.38186, 48.24461]}}, {"type": "Feature", "properties": {"old": "Pater-Abel-Platz", "new": "Friedrich-Engels-Platz", "st": "Pater Abel=", "hn": "", "n": 28, "year": "1939"}, "geometry": {"type": "Point", "coordinates": [16.37898, 48.24523]}}, {"type": "Feature", "properties": {"old": "Pater-Abel-Platz", "new": "Friedrich-Engels-Platz", "st": "Pater Abel-Platz", "hn": "", "n": 13, "year": "1939"}, "geometry": {"type": "Point", "coordinates": [16.37788, 48.24531]}}, {"type": "Feature", "properties": {"old": "Pater-Abel-Platz", "new": "Friedrich-Engels-Platz", "st": "Pater Abel-Platz", "hn": "10", "n": 13, "year": "1939"}, "geometry": {"type": "Point", "coordinates": [16.37863, 48.24563]}}, {"type": "Feature", "properties": {"old": "Pater-Abel-Platz", "new": "Friedrich-Engels-Platz", "st": "Pater Abel-Platz", "hn": "9", "n": 167, "year": "1939"}, "geometry": {"type": "Point", "coordinates": [16.37919, 48.24565]}}, {"type": "Feature", "properties": {"old": "Pater-Abel-Platz", "new": "Friedrich-Engels-Platz", "st": "Pater Abel-Platz", "hn": "3", "n": 14, "year": "1939"}, "geometry": {"type": "Point", "coordinates": [16.37735, 48.24577]}}, {"type": "Feature", "properties": {"old": "Pater-Abel-Platz", "new": "Friedrich-Engels-Platz", "st": "Pater Abel-Platz", "hn": "", "n": 2, "year": "1939"}, "geometry": {"type": "Point", "coordinates": [16.37966, 48.24585]}}, {"type": "Feature", "properties": {"old": "Engelsplatz / Pater-Abel-Platz", "new": "Friedrich-Engels-Platz", "st": "Pater Abel-Platz", "hn": "4", "n": 8, "year": "1939"}, "geometry": {"type": "Point", "coordinates": [16.37752, 48.24587]}}, {"type": "Feature", "properties": {"old": "Pater-Abel-Platz", "new": "Friedrich-Engels-Platz", "st": "Pater Abel-Platz", "hn": "5", "n": 6, "year": "1939"}, "geometry": {"type": "Point", "coordinates": [16.37769, 48.24594]}}, {"type": "Feature", "properties": {"old": "Pater-Abel-Platz", "new": "Friedrich-Engels-Platz", "st": "Pater Abel", "hn": "6", "n": 7, "year": "1939"}, "geometry": {"type": "Point", "coordinates": [16.37785, 48.24602]}}, {"type": "Feature", "properties": {"old": "Pater-Abel-Platz", "new": "Friedrich-Engels-Platz", "st": "Pater Abel-Platz", "hn": "7", "n": 8, "year": "1939"}, "geometry": {"type": "Point", "coordinates": [16.37802, 48.24609]}}, {"type": "Feature", "properties": {"old": "Pater-Abel-Platz", "new": "Friedrich-Engels-Platz", "st": "Pater Abel-Platz", "hn": "8", "n": 13, "year": "1939"}, "geometry": {"type": "Point", "coordinates": [16.37824, 48.24613]}}, {"type": "Feature", "properties": {"old": "Pater-Abel-Platz", "new": "Friedrich-Engels-Platz", "st": "Pater Abel=Platz 12, Wohn", "hn": "", "n": 2, "year": "1939"}, "geometry": {"type": "Point", "coordinates": [16.38088, 48.24633]}}, {"type": "Feature", "properties": {"old": "Engelsplatz / Pater-Abel-Platz", "new": "Friedrich-Engels-Platz", "st": "Engelsplatz", "hn": "2", "n": 4, "year": "1939"}, "geometry": {"type": "Point", "coordinates": [16.37642, 48.24634]}}, {"type": "Feature", "properties": {"old": "Pfarrplatz", "new": "Hermaplatz", "st": "Pfarrplatz", "hn": "5", "n": 1, "year": "1939"}, "geometry": {"type": "Point", "coordinates": [16.3589, 48.2546]}}, {"type": "Feature", "properties": {"old": "Pfarrplatz", "new": "Hermaplatz", "st": "Pfarrplatz", "hn": "", "n": 10, "year": "1939"}, "geometry": {"type": "Point", "coordinates": [16.3581, 48.2549]}}, {"type": "Feature", "properties": {"old": "Zwillinggasse", "new": "Kinderasylgasse", "st": "Zwillinggasse", "hn": "", "n": 8, "year": "1939"}, "geometry": {"type": "Point", "coordinates": [16.3562, 48.274]}}, {"type": "Feature", "properties": {"old": "Tschechowgasse", "new": "Slatingasse", "st": "Tschechowgasse", "hn": "19", "n": 1, "year": "1939"}, "geometry": {"type": "Point", "coordinates": [16.3799, 48.2796]}}, {"type": "Feature", "properties": {"old": "Tschechowgasse", "new": "Slatingasse", "st": "Tschechowgasse", "hn": "17", "n": 1, "year": "1939"}, "geometry": {"type": "Point", "coordinates": [16.3798, 48.2797]}}, {"type": "Feature", "properties": {"old": "Tschechowgasse", "new": "Slatingasse", "st": "Tschechowgasse", "hn": "", "n": 4, "year": "1939"}, "geometry": {"type": "Point", "coordinates": [16.3788, 48.2798]}}, {"type": "Feature", "properties": {"old": "Tschechowgasse", "new": "Slatingasse", "st": "Tschechowgasse", "hn": "7", "n": 1, "year": "1939"}, "geometry": {"type": "Point", "coordinates": [16.3791, 48.2798]}}, {"type": "Feature", "properties": {"old": "Schulbrüdergasse", "new": "Strebersdorfer Platz", "st": "Schulbrüderg", "hn": "", "n": 4, "year": "1939"}, "geometry": {"type": "Point", "coordinates": [16.3901, 48.2954]}}]}