{"type": "FeatureCollection", "features": [{"type": "Feature", "properties": {"old": "Sterneckplatz", "new": "Max-Winter-Platz", "st": "Sterneckplatz", "hn": "17", "n": 15, "year": "1938"}, "geometry": {"type": "Point", "coordinates": [16.40082, 48.21939]}}, {"type": "Feature", "properties": {"old": "Sterneckplatz", "new": "Max-Winter-Platz", "st": "Sterneckplatz", "hn": "22", "n": 25, "year": "1938"}, "geometry": {"type": "Point", "coordinates": [16.39946, 48.2194]}}, {"type": "Feature", "properties": {"old": "Sterneckplatz", "new": "Max-Winter-Platz", "st": "Sterneckplatz", "hn": "21", "n": 28, "year": "1938"}, "geometry": {"type": "Point", "coordinates": [16.39971, 48.2194]}}, {"type": "Feature", "properties": {"old": "Sterneckplatz", "new": "Max-Winter-Platz", "st": "Sterneckplatz", "hn": "20", "n": 26, "year": "1938"}, "geometry": {"type": "Point", "coordinates": [16.39999, 48.2194]}}, {"type": "Feature", "properties": {"old": "Sterneckplatz", "new": "Max-Winter-Platz", "st": "Sterneckplatz", "hn": "19", "n": 28, "year": "1938"}, "geometry": {"type": "Point", "coordinates": [16.40023, 48.2194]}}, {"type": "Feature", "properties": {"old": "Sterneckplatz", "new": "Max-Winter-Platz", "st": "Sterneckplatz", "hn": "18", "n": 19, "year": "1938"}, "geometry": {"type": "Point", "coordinates": [16.40052, 48.2194]}}, {"type": "Feature", "properties": {"old": "Sterneckplatz", "new": "Max-Winter-Platz", "st": "Sterneckplatz", "hn": "16", "n": 2, "year": "1938"}, "geometry": {"type": "Point", "coordinates": [16.40144, 48.21963]}}, {"type": "Feature", "properties": {"old": "Sterneckplatz", "new": "Max-Winter-Platz", "st": "Sterneckplatz", "hn": "15", "n": 32, "year": "1938"}, "geometry": {"type": "Point", "coordinates": [16.40116, 48.21986]}}, {"type": "Feature", "properties": {"old": "Sterneckplatz", "new": "Max-Winter-Platz", "st": "Sterneckplat", "hn": "1", "n": 2, "year": "1938"}, "geometry": {"type": "Point", "coordinates": [16.39956, 48.21995]}}, {"type": "Feature", "properties": {"old": "Sterneckplatz", "new": "Max-Winter-Platz", "st": "Sterneckplatz", "hn": "14", "n": 28, "year": "1938"}, "geometry": {"type": "Point", "coordinates": [16.40107, 48.22004]}}, {"type": "Feature", "properties": {"old": "Sterneckplatz", "new": "Max-Winter-Platz", "st": "Sterneckplatz", "hn": "2", "n": 2, "year": "1938"}, "geometry": {"type": "Point", "coordinates": [16.39944, 48.22018]}}, {"type": "Feature", "properties": {"old": "Sterneckplatz", "new": "Max-Winter-Platz", "st": "Sterneckplatz", "hn": "13", "n": 39, "year": "1938"}, "geometry": {"type": "Point", "coordinates": [16.40098, 48.22022]}}, {"type": "Feature", "properties": {"old": "Sterneckplatz", "new": "Max-Winter-Platz", "st": "Sterneckplatz 3, Wohn", "hn": "", "n": 74, "year": "1938"}, "geometry": {"type": "Point", "coordinates": [16.3989, 48.2205]}}, {"type": "Feature", "properties": {"old": "Sterneckplatz", "new": "Max-Winter-Platz", "st": "Sterneckplatz", "hn": "12", "n": 19, "year": "1938"}, "geometry": {"type": "Point", "coordinates": [16.40097, 48.22052]}}, {"type": "Feature", "properties": {"old": "Sterneckplatz", "new": "Max-Winter-Platz", "st": "Sterneckplatz", "hn": "3", "n": 26, "year": "1938"}, "geometry": {"type": "Point", "coordinates": [16.39886, 48.22054]}}, {"type": "Feature", "properties": {"old": "Sterneckplatz", "new": "Max-Winter-Platz", "st": "Sterneckplatz", "hn": "4", "n": 29, "year": "1938"}, "geometry": {"type": "Point", "coordinates": [16.39907, 48.22066]}}, {"type": "Feature", "properties": {"old": "Sterneckplatz", "new": "Max-Winter-Platz", "st": "Sterneckplatz", "hn": "11", "n": 1, "year": "1938"}, "geometry": {"type": "Point", "coordinates": [16.40069, 48.22076]}}, {"type": "Feature", "properties": {"old": "Sterneckplatz", "new": "Max-Winter-Platz", "st": "Sterneckplatz", "hn": "5", "n": 30, "year": "1938"}, "geometry": {"type": "Point", "coordinates": [16.39929, 48.22077]}}, {"type": "Feature", "properties": {"old": "Sterneckplatz", "new": "Max-Winter-Platz", "st": "Sterneckplatz", "hn": "6", "n": 29, "year": "1938"}, "geometry": {"type": "Point", "coordinates": [16.39945, 48.22084]}}, {"type": "Feature", "properties": {"old": "Sterneckplatz", "new": "Max-Winter-Platz", "st": "Sterneckplatz", "hn": "10", "n": 27, "year": "1938"}, "geometry": {"type": "Point", "coordinates": [16.40061, 48.22093]}}, {"type": "Feature", "properties": {"old": "Sterneckplatz", "new": "Max-Winter-Platz", "st": "Sterneckplatz", "hn": "7", "n": 25, "year": "1938"}, "geometry": {"type": "Point", "coordinates": [16.3997, 48.22099]}}, {"type": "Feature", "properties": {"old": "Sterneckplatz", "new": "Max-Winter-Platz", "st": "Sterneckplatz", "hn": "9", "n": 37, "year": "1938"}, "geometry": {"type": "Point", "coordinates": [16.40053, 48.22106]}}, {"type": "Feature", "properties": {"old": "Sterneckplatz", "new": "Max-Winter-Platz", "st": "Sterneckplatz", "hn": "8", "n": 15, "year": "1938"}, "geometry": {"type": "Point", "coordinates": [16.39993, 48.22112]}}]}